[
  {
    "Address": "110 Mercer Street",
    "Email": "GEELONG.UNI@police.vic.gov.au",
    "Fax": "(03) 52253104",
    "Latitude": "-38.1452305350011",
    "Longitude": "144.356877676839",
    "Name": "Geelong",
    "Opening_Hours": "24 hours.",
    "Phone": "(03) 52253100",
    "Postcode": 3220,
    "Suburb": "Geelong",
    "Suburb_Cap": "GEELONG"
  },
  {
    "Address": "70 Commercial Road",
    "Email": "TARNAGULLA.UNI@police.vic.gov.au",
    "Fax": "(03) 5438 7411",
    "Latitude": "-36.7701171056665",
    "Longitude": "143.833166789746",
    "Name": "Tarnagulla",
    "Opening_Hours": "Non-24 Hours",
    "Phone": "(03) 5438 7333",
    "Postcode": 3551,
    "Suburb": "Tarnagulla",
    "Suburb_Cap": "TARNAGULLA"
  },
  {
    "Address": "18 High Street",
    "Email": "TERANG.UNI@police.vic.gov.au",
    "Fax": "(03) 5592 1628",
    "Latitude": "-38.2407860918406",
    "Longitude": "142.919649420129",
    "Name": "Terang",
    "Opening_Hours": "Non-24 Hours",
    "Phone": "(03) 5592 1058",
    "Postcode": 3264,
    "Suburb": "Terang",
    "Suburb_Cap": "TERANG"
  },
  {
    "Address": "2 Hanna Street",
    "Email": "WALWA.UNI@police.vic.gov.au",
    "Fax": "(02) 6037 1438",
    "Latitude": "-35.9648521093101",
    "Longitude": "147.733505314574",
    "Name": "Walwa",
    "Opening_Hours": "Non-24 Hours",
    "Phone": "(02) 6037 1394",
    "Postcode": 3709,
    "Suburb": "Walwa",
    "Suburb_Cap": "WALWA"
  },
  {
    "Address": "1 Police Street",
    "Email": "WARRANDYTE.UNI@police.vic.gov.au",
    "Fax": "(03) 9844 1762",
    "Latitude": "-37.7406976851577",
    "Longitude": "145.212765221709",
    "Name": "Warrandyte",
    "Opening_Hours": "Non-24 Hours",
    "Phone": "(03) 9844 3231",
    "Postcode": 3113,
    "Suburb": "Warrandyte",
    "Suburb_Cap": "WARRANDYTE"
  },
  {
    "Address": "5515 Millewa Road",
    "Email": "UNI-WERRIMULL@police.vic.gov.au",
    "Fax": "(03) 5028 1283",
    "Latitude": "-34.3873701752869",
    "Longitude": "141.597525088119",
    "Name": "Werrimull",
    "Opening_Hours": "Non-24 Hours",
    "Phone": "(03) 5028 1205",
    "Postcode": 3496,
    "Suburb": "Werrimull",
    "Suburb_Cap": "WERRIMULL"
  },
  {
    "Address": "56 Main Street",
    "Email": "GOROKE.UNI@police.vic.gov.au",
    "Fax": "(03) 5386 1158",
    "Latitude": "-36.7185696506717",
    "Longitude": "141.471663982119",
    "Name": "Goroke",
    "Opening_Hours": "Non-24 Hours",
    "Phone": "(03) 5386 1004",
    "Postcode": 3412,
    "Suburb": "Goroke",
    "Suburb_Cap": "GOROKE"
  },
  {
    "Address": "42-44 Main Street",
    "Email": "GUNBOWER.UNI@police.vic.gov.au",
    "Fax": "(03) 5487 1538",
    "Latitude": "-35.955696824812",
    "Longitude": "144.36711972641",
    "Name": "Gunbower",
    "Opening_Hours": "Non-24 Hours",
    "Phone": "(03) 5487 1354",
    "Postcode": 3566,
    "Suburb": "Gunbower",
    "Suburb_Cap": "GUNBOWER"
  },
  {
    "Address": "11 Williamson Street",
    "Email": "LEXTON.UNI@police.vic.gov.au",
    "Fax": "(03) 5466 7300",
    "Latitude": "-37.2743955152876",
    "Longitude": "143.517393934378",
    "Name": "Lexton",
    "Opening_Hours": "Non-24 Hours",
    "Phone": "(03) 5466 7233",
    "Postcode": 3352,
    "Suburb": "Lexton",
    "Suburb_Cap": "LEXTON"
  },
  {
    "Address": "82 Sussex Street",
    "Email": "LINTON.UNI@police.vic.gov.au",
    "Fax": "(03) 5344 7502",
    "Latitude": "-37.6874322855092",
    "Longitude": "143.561852682606",
    "Name": "Linton",
    "Opening_Hours": "Non-24 Hours",
    "Phone": "(03) 5344 7211",
    "Postcode": 3360,
    "Suburb": "Linton",
    "Suburb_Cap": "LINTON"
  },
  {
    "Address": "69 High Street",
    "Email": "LISMORE.UNI@police.vic.gov.au",
    "Fax": "(03) 5596 2004",
    "Latitude": "-37.9534627787805",
    "Longitude": "143.340685590501",
    "Name": "Lismore",
    "Opening_Hours": "Non-24 Hours",
    "Phone": "(03) 5596 2055",
    "Postcode": 3324,
    "Suburb": "Lismore",
    "Suburb_Cap": "LISMORE"
  },
  {
    "Address": "91 Wattle Street",
    "Email": "MANANGATANG-UNI-OIC@police.vic.gov.au",
    "Fax": "(03) 5035 1222",
    "Latitude": "-35.0503968391676",
    "Longitude": "142.882633331016",
    "Name": "Manangatang",
    "Opening_Hours": "Non-24 Hours",
    "Phone": "(03) 5035 1291",
    "Postcode": 3546,
    "Suburb": "Manangatang",
    "Suburb_Cap": "MANANGATANG"
  },
  {
    "Address": "119 Commercial Street",
    "Email": "UNI-MERBEIN@police.vic.gov.au",
    "Fax": "(03) 5025 2076",
    "Latitude": "-34.1677254806009",
    "Longitude": "142.062667611767",
    "Name": "Merbein",
    "Opening_Hours": "Non-24 Hours",
    "Phone": "(03) 5025 2201",
    "Postcode": 3505,
    "Suburb": "Merbein",
    "Suburb_Cap": "MERBEIN"
  },
  {
    "Address": "14 Wilson Street",
    "Email": "MEREDITH-UNI-OIC@police.vic.gov.au",
    "Fax": "(03) 5286 1501",
    "Latitude": "-37.8464961156715",
    "Longitude": "144.075749392204",
    "Name": "Meredith",
    "Opening_Hours": "Non-24 Hours",
    "Phone": "(03) 5286 1222",
    "Postcode": 3333,
    "Suburb": "Meredith",
    "Suburb_Cap": "MEREDITH"
  },
  {
    "Address": "62-68 Deakin Avenue",
    "Email": "MILDURA-UNI-OIC@police.vic.gov.au",
    "Fax": "(03) 5018 5333",
    "Latitude": "-34.1860934322283",
    "Longitude": "142.161935564326",
    "Name": "Mildura",
    "Opening_Hours": "24 hours.",
    "Phone": "(03) 5018 5300",
    "Postcode": 3500,
    "Suburb": "Mildura",
    "Suburb_Cap": "MILDURA"
  },
  {
    "Address": "35A Nelson Street",
    "Email": "APOLLOBAY.UNI@police.vic.gov.au",
    "Fax": "(03) 5237 6873",
    "Latitude": "-38.7595577388223",
    "Longitude": "143.669554246464",
    "Name": "Apollo Bay",
    "Opening_Hours": "Non-24 Hours",
    "Phone": "(03) 5237 6750",
    "Postcode": 3233,
    "Suburb": "Apollo Bay",
    "Suburb_Cap": "APOLLO BAY"
  },
  {
    "Address": "12 Camp Street",
    "Email": "UNI-CHARLTON@police.vic.gov.au",
    "Fax": "(03) 5491 1864",
    "Latitude": "-36.2697039811444",
    "Longitude": "143.348173928314",
    "Name": "Charlton",
    "Opening_Hours": "Non-24 Hours",
    "Phone": "(03) 5491 1011",
    "Postcode": 3252,
    "Suburb": "Charlton",
    "Suburb_Cap": "CHARLTON"
  },
  {
    "Address": "9 Bull Street",
    "Email": "DUNOLLY.UNI@police.vic.gov.au",
    "Fax": "(03) 5468 1100",
    "Latitude": "-36.8571214265815",
    "Longitude": "143.733661932905",
    "Name": "Dunolly",
    "Opening_Hours": "Non-24 Hours",
    "Phone": "(03) 5468 1100",
    "Postcode": 3472,
    "Suburb": "Dunolly",
    "Suburb_Cap": "DUNOLLY"
  },
  {
    "Address": "7 Blair Street",
    "Email": "HARROW.UNI@police.vic.gov.au",
    "Fax": "(03) 5588 1322",
    "Latitude": "-37.1641956445085",
    "Longitude": "141.593935521334",
    "Name": "Harrow",
    "Opening_Hours": "Non-24 Hours",
    "Phone": "(03) 5588 1213",
    "Postcode": 3317,
    "Suburb": "Harrow",
    "Suburb_Cap": "HARROW"
  },
  {
    "Address": "9 Lindsay Street",
    "Email": "HEYWOOD-UNI-OIC@police.vic.gov.au",
    "Fax": "(03) 5527 1072",
    "Latitude": "-38.1334985133006",
    "Longitude": "141.628987895877",
    "Name": "Heywood",
    "Opening_Hours": "Non-24 Hours",
    "Phone": "(03) 5527 1614",
    "Postcode": 3304,
    "Suburb": "Heywood",
    "Suburb_Cap": "HEYWOOD"
  },
  {
    "Address": "94 Lascelles Street",
    "Email": "HOPETOUN.UNI@police.vic.gov.au",
    "Fax": "(03) 5083 3329",
    "Latitude": "-35.7288151417697",
    "Longitude": "142.365972345443",
    "Name": "Hopetoun",
    "Opening_Hours": "Non-24 Hours",
    "Phone": "(03) 5083 3031",
    "Postcode": 3396,
    "Suburb": "Hopetoun",
    "Suburb_Cap": "HOPETOUN"
  },
  {
    "Address": "16 Albert Street",
    "Email": "UNI.KERANG@police.vic.gov.au",
    "Fax": "(03) 5452 2844",
    "Latitude": "-35.733902035547",
    "Longitude": "143.921498746396",
    "Name": "Kerang",
    "Opening_Hours": "Non-24 Hours",
    "Phone": "(03) 5452 1955",
    "Postcode": 3579,
    "Suburb": "Kerang",
    "Suburb_Cap": "KERANG"
  },
  {
    "Address": "71-79 Barkley Street",
    "Email": "ARARAT.UNI@police.vic.gov.au",
    "Fax": "(03) 9244 2513",
    "Latitude": "-37.2842265314181",
    "Longitude": "142.92740785161",
    "Name": "Ararat",
    "Opening_Hours": "24 hours.",
    "Phone": "(03) 5355 1500",
    "Postcode": 3377,
    "Suburb": "Ararat",
    "Suburb_Cap": "ARARAT"
  },
  {
    "Address": "176 Inglis Street",
    "Email": "BALLAN.UNI@police.vic.gov.au",
    "Fax": "(03) 5368 1868",
    "Latitude": "-37.5999407635821",
    "Longitude": "144.220880011574",
    "Name": "Ballan",
    "Opening_Hours": "Non-24 Hours",
    "Phone": "(03) 5368 1303",
    "Postcode": 3342,
    "Suburb": "Ballan",
    "Suburb_Cap": "BALLAN"
  },
  {
    "Address": "63 Main Street",
    "Email": "beeac.uni@police.vic.gov.au",
    "Fax": "(03) 9244 2108",
    "Latitude": "-38.1953839993756",
    "Longitude": "143.640054970936",
    "Name": "Beeac",
    "Opening_Hours": "Non-24 Hours",
    "Phone": "(03) 5234 6255",
    "Postcode": 3251,
    "Suburb": "Beeac",
    "Suburb_Cap": "BEEAC"
  },
  {
    "Address": "2 Ena Road",
    "Email": "BELGRAVE.UNI@police.vic.gov.au",
    "Fax": "(03) 9244 2207",
    "Latitude": "-37.9079363936067",
    "Longitude": "145.35457314559",
    "Name": "Belgrave",
    "Opening_Hours": "Non-24 Hours",
    "Phone": "(03) 9754 6677",
    "Postcode": 3160,
    "Suburb": "Belgrave",
    "Suburb_Cap": "BELGRAVE"
  },
  {
    "Address": "6-10 Forest Road South",
    "Email": "LARA.UNI@police.vic.gov.au",
    "Fax": "(03) 9244 2261",
    "Latitude": "-38.0234652877706",
    "Longitude": "144.396049213835",
    "Name": "Lara",
    "Opening_Hours": "Non-24 Hours",
    "Phone": "(03) 5282 1241",
    "Postcode": 3212,
    "Suburb": "Lara",
    "Suburb_Cap": "LARA"
  },
  {
    "Address": "65 Main Road",
    "Email": "RIDDELLSCREEK-UNI-OIC@police.vic.gov.au",
    "Fax": "(03) 5428 7093",
    "Latitude": "-37.4618481843611",
    "Longitude": "144.678504156737",
    "Name": "Riddells Creek",
    "Opening_Hours": "Non-24 Hours",
    "Phone": "(03) 5428 6171",
    "Postcode": 3431,
    "Suburb": "Riddells Creek",
    "Suburb_Cap": "RIDDELLS CREEK"
  },
  {
    "Address": "27 Moore Street",
    "Email": "ROCHESTER.UNI@police.vic.gov.au",
    "Fax": "(03) 5484 2418",
    "Latitude": "-36.3631363390428",
    "Longitude": "144.699241366794",
    "Name": "Rochester",
    "Opening_Hours": "Non-24 Hours",
    "Phone": "(03) 5484 1100",
    "Postcode": 3561,
    "Suburb": "Rochester",
    "Suburb_Cap": "ROCHESTER"
  },
  {
    "Address": "52 Ferrars Street",
    "Email": "ROKEWOOD.UNI@police.vic.gov.au",
    "Fax": "(03) 5346 1448",
    "Latitude": "-37.9008308751047",
    "Longitude": "143.721722191383",
    "Name": "Rokewood",
    "Opening_Hours": "Non-24 Hours",
    "Phone": "(03) 5346 1342",
    "Postcode": 3330,
    "Suburb": "Rokewood",
    "Suburb_Cap": "ROKEWOOD"
  },
  {
    "Address": "4 Sebastopol-Smythesdale Road",
    "Email": "SMYTHESDALE.UNI@police.vic.gov.au",
    "Fax": "(03) 5342 8391",
    "Latitude": "-37.6432589549946",
    "Longitude": "143.686490041256",
    "Name": "Smythesdale",
    "Opening_Hours": "Non-24 Hours",
    "Phone": "(03) 5342 8524",
    "Postcode": 3351,
    "Suburb": "Smythesdale",
    "Suburb_Cap": "SMYTHESDALE"
  },
  {
    "Address": "7 Jennings Street",
    "Email": "ST.ARNAUD-UNI-OIC@police.vic.gov.au",
    "Fax": "(03) 5495 1269",
    "Latitude": "-36.6170806809117",
    "Longitude": "143.259527475338",
    "Name": "St Arnaud",
    "Opening_Hours": "Non-24 Hours",
    "Phone": "(03) 5495 1000",
    "Postcode": 3478,
    "Suburb": "St Arnaud",
    "Suburb_Cap": "ST ARNAUD"
  },
  {
    "Address": "456 Lonsdale Street",
    "Email": "prosecutions.ops@police.vic.gov.au",
    "Fax": "(03) 96707563",
    "Latitude": "-37.8129605055675",
    "Longitude": "144.958669190225",
    "Name": "Prosecutions Division Headquarters",
    "Opening_Hours": "Non-24 Hours",
    "Phone": "(03) 86283270",
    "Postcode": 3000,
    "Suburb": "Melbourne",
    "Suburb_Cap": "MELBOURNE"
  },
  {
    "Address": "313 Spencer Street",
    "Email": "NA",
    "Fax": "NA",
    "Latitude": "-37.8139789181966",
    "Longitude": "144.951152353264",
    "Name": "Victoria Police Centre",
    "Opening_Hours": "Non-24 Hours",
    "Phone": "(03) 92476666",
    "Postcode": 3008,
    "Suburb": "Docklands",
    "Suburb_Cap": "DOCKLANDS"
  },
  {
    "Address": "1 Galvin Street",
    "Email": "ALTONANORTH.UNI@police.vic.gov.au",
    "Fax": "(03) 9392 3200",
    "Latitude": "-37.8632123641791",
    "Longitude": "144.810691651848",
    "Name": "Altona",
    "Opening_Hours": "24 hours.",
    "Phone": "(03) 9392 3111",
    "Postcode": 3018,
    "Suburb": "Altona",
    "Suburb_Cap": "ALTONA"
  },
  {
    "Address": "15 Dimboola Road",
    "Email": "BROADMEADOWS.UNI@police.vic.gov.au",
    "Fax": "(03) 93028133",
    "Latitude": "-37.6834149748064",
    "Longitude": "144.916536794178",
    "Name": "Broadmeadows",
    "Opening_Hours": "24 hours.",
    "Phone": "(03) 93028222",
    "Postcode": 3047,
    "Suburb": "Broadmeadows",
    "Suburb_Cap": "BROADMEADOWS"
  },
  {
    "Address": "312 Station Street",
    "Email": "chelsea.uni@police.vic.gov.au",
    "Fax": "(03) 87733255",
    "Latitude": "-38.0512719647026",
    "Longitude": "145.116262318652",
    "Name": "Chelsea",
    "Opening_Hours": "24 hours.",
    "Phone": "(03) 87733200",
    "Postcode": 3196,
    "Suburb": "Chelsea",
    "Suburb_Cap": "CHELSEA"
  },
  {
    "Address": "321 Point Nepean Road",
    "Email": "dromana.uni@police.vic.gov.au",
    "Fax": "(03) 59819022",
    "Latitude": "-38.334719598288",
    "Longitude": "144.961053122538",
    "Name": "Dromana",
    "Opening_Hours": "Non-24 Hours",
    "Phone": "(03) 59872023",
    "Postcode": 3936,
    "Suburb": "Dromana",
    "Suburb_Cap": "DROMANA"
  },
  {
    "Address": "15 Fletcher Road",
    "Email": "frankston.uni@police.vic.gov.au",
    "Fax": "(03) 97812754",
    "Latitude": "-38.1389064737706",
    "Longitude": "145.124675186371",
    "Name": "Frankston",
    "Opening_Hours": "24 hours.",
    "Phone": "(03) 97845555",
    "Postcode": 3199,
    "Suburb": "Frankston",
    "Suburb_Cap": "FRANKSTON"
  },
  {
    "Address": "260 Rossiter Road",
    "Email": "kooweerup.uni@police.vic.gov.au",
    "Fax": "NA",
    "Latitude": "-38.2002594156133",
    "Longitude": "145.489125408044",
    "Name": "Koo Wee Rup",
    "Opening_Hours": "Non-24 hours, reception counter temporarily suspended.",
    "Phone": "(03) 59971404",
    "Postcode": 3981,
    "Suburb": "Koo Wee Rup",
    "Suburb_Cap": "KOO WEE RUP"
  },
  {
    "Address": "288 Glenferrie Road",
    "Email": "malvern.uni@police.vic.gov.au",
    "Fax": "(03) 98222469",
    "Latitude": "-37.8558886980499",
    "Longitude": "145.029569757502",
    "Name": "Malvern",
    "Opening_Hours": "Reception counter closed 10:00pm - 6:00am",
    "Phone": "(03) 88235600",
    "Postcode": 3144,
    "Suburb": "Malvern",
    "Suburb_Cap": "MALVERN"
  },
  {
    "Address": "8 Coventry Road Corner Lauderdale and Coventry Road",
    "Email": "NARREWARREN-UNI-OIC@police.vic.gov.au",
    "Fax": "(03) 97053144",
    "Latitude": "-38.0258422944931",
    "Longitude": "145.311137472992",
    "Name": "Narre Warren",
    "Opening_Hours": "24 hours.",
    "Phone": "(03) 97053111",
    "Postcode": 3805,
    "Suburb": "Narre Warren",
    "Suburb_Cap": "NARRE WARREN"
  },
  {
    "Address": "314-322 Springvale Road",
    "Email": "springvale.uni@police.vic.gov.au",
    "Fax": "(03) 85588606",
    "Latitude": "-37.9553313675126",
    "Longitude": "145.151483726975",
    "Name": "Springvale",
    "Opening_Hours": "24 hours.",
    "Phone": "(03) 85588600",
    "Postcode": 3171,
    "Suburb": "Springvale",
    "Suburb_Cap": "SPRINGVALE"
  },
  {
    "Address": "Frankston Police Complex, 15 Fletcher Road",
    "Email": "frankston.pros@police.vic.gov.au",
    "Fax": "(03) 97705997",
    "Latitude": "-38.1389075981778",
    "Longitude": "145.124676575468",
    "Name": "Frankston Prosecutions",
    "Opening_Hours": "Non-24 Hours",
    "Phone": "(03) 97845611",
    "Postcode": 3199,
    "Suburb": "Frankston",
    "Suburb_Cap": "FRANKSTON"
  },
  {
    "Address": "386 Belgrave Gembrook Road",
    "Email": "emerald.uni@police.vic.gov.au",
    "Fax": "(03) 59540261",
    "Latitude": "-37.9304700579438",
    "Longitude": "145.444229438966",
    "Name": "Emerald",
    "Opening_Hours": "Telephone only (non-24 hrs), reception counter closed weekends and between 5:00pm and 9:00am weekdays.",
    "Phone": "(03) 59540200",
    "Postcode": 3782,
    "Suburb": "Emerald",
    "Suburb_Cap": "EMERALD"
  },
  {
    "Address": "221 Caroline Springs Boulevard",
    "Email": "CAROLINESPRINGS-UNI-OIC@police.vic.gov.au",
    "Fax": "(03) 93614799",
    "Latitude": "-37.7308114456612",
    "Longitude": "144.741398250651",
    "Name": "Caroline Springs",
    "Opening_Hours": "Non-24 Hours",
    "Phone": "(03) 93614700",
    "Postcode": 3023,
    "Suburb": "Caroline Springs",
    "Suburb_Cap": "CAROLINE SPRINGS"
  },
  {
    "Address": "542 Bridge Inn Road",
    "Email": "MERNDA-UNI-OIC@police.vic.gov.au",
    "Fax": "(03) 92161268",
    "Latitude": "-37.6005452105071",
    "Longitude": "145.09258158388",
    "Name": "Mernda",
    "Opening_Hours": "24 hours.",
    "Phone": "(03) 92161200",
    "Postcode": 3754,
    "Suburb": "Mernda",
    "Suburb_Cap": "MERNDA"
  },
  {
    "Address": "41 Main Road",
    "Email": "buchan.uni@police.vic.gov.au",
    "Fax": "(03) 51559411",
    "Latitude": "-37.4998593202231",
    "Longitude": "148.171285037751",
    "Name": "Buchan",
    "Opening_Hours": "Non-24 Hours",
    "Phone": "(03) 51559268",
    "Postcode": 3885,
    "Suburb": "Buchan",
    "Suburb_Cap": "BUCHAN"
  },
  {
    "Address": "92 Chapel Street",
    "Email": "cowes.uni@police.vic.gov.au",
    "Fax": "(03) 59525758",
    "Latitude": "-38.4500247812607",
    "Longitude": "145.235725975733",
    "Name": "Cowes",
    "Opening_Hours": "Non-24 Hours",
    "Phone": "(03) 59522037",
    "Postcode": 3933,
    "Suburb": "Cowes",
    "Suburb_Cap": "COWES"
  },
  {
    "Address": "979 Doncaster Road",
    "Email": "doncaster.uni@police.vic.gov.au",
    "Fax": "(03) 98428003",
    "Latitude": "-37.7883162931097",
    "Longitude": "145.158000105729",
    "Name": "Doncaster",
    "Opening_Hours": "24 hours.",
    "Phone": "(03) 88413999",
    "Postcode": 3109,
    "Suburb": "Doncaster East",
    "Suburb_Cap": "DONCASTER EAST"
  },
  {
    "Address": "30 Wellington Street",
    "Email": "FLEMINGTON.UNI@police.vic.gov.au",
    "Fax": "(03) 93716160",
    "Latitude": "-37.7851517000485",
    "Longitude": "144.932037111204",
    "Name": "Flemington",
    "Opening_Hours": "24 hours.",
    "Phone": "(03) 93716100",
    "Postcode": 3031,
    "Suburb": "Flemington",
    "Suburb_Cap": "FLEMINGTON"
  },
  {
    "Address": "167 - 171 Grimshaw Street",
    "Email": "greensborough.uni@police.vic.gov.au",
    "Fax": "(03) 84320232",
    "Latitude": "-37.7040763699711",
    "Longitude": "145.096492067367",
    "Name": "Greensborough",
    "Opening_Hours": "24 hours.",
    "Phone": "(03) 84320200",
    "Postcode": 3088,
    "Suburb": "Greensborough",
    "Suburb_Cap": "GREENSBOROUGH"
  },
  {
    "Address": "1 Copernicus Way Corner Sunshine Avenue",
    "Email": "KEILORDOWNS.UNI@police.vic.gov.au",
    "Fax": "(03) 93653303",
    "Latitude": "-37.7237918588768",
    "Longitude": "144.807873427678",
    "Name": "Keilor Downs",
    "Opening_Hours": "24 hours.",
    "Phone": "(03) 93653333",
    "Postcode": 3038,
    "Suburb": "Keilor Downs",
    "Suburb_Cap": "KEILOR DOWNS"
  },
  {
    "Address": "2 Francis Briggs Road",
    "Email": "NA",
    "Fax": "(03) 83463616",
    "Latitude": "-37.6765130223708",
    "Longitude": "144.850522450514",
    "Name": "Melbourne Airport",
    "Opening_Hours": "24 hours.",
    "Phone": "(03) 83463400",
    "Postcode": 3045,
    "Suburb": "Melbourne Airport",
    "Suburb_Cap": "MELBOURNE AIRPORT"
  },
  {
    "Address": "313 Spencer Street",
    "Email": "melbournewest-uni-oic@police.vic.gov.au",
    "Fax": "(03) 8690 2904",
    "Latitude": "-37.8139070637359",
    "Longitude": "144.951493912015",
    "Name": "Melbourne West",
    "Opening_Hours": "24 hours.",
    "Phone": "(03) 86904444",
    "Postcode": 3008,
    "Suburb": "Docklands",
    "Suburb_Cap": "DOCKLANDS"
  },
  {
    "Address": "243 Station Road",
    "Email": "MELTON.UNI@police.vic.gov.au",
    "Fax": "(03) 97477903",
    "Latitude": "-37.6855504411162",
    "Longitude": "144.577909604207",
    "Name": "Melton",
    "Opening_Hours": "24 hours.",
    "Phone": "(03) 97477999",
    "Postcode": 3337,
    "Suburb": "Melton",
    "Suburb_Cap": "MELTON"
  },
  {
    "Address": "1 Lawson Street",
    "Email": "orbost.uni2@police.vic.gov.au",
    "Fax": "(03) 51541173",
    "Latitude": "-37.7066027123955",
    "Longitude": "148.456032419311",
    "Name": "Orbost",
    "Opening_Hours": "Non-24 Hours",
    "Phone": "(03) 51541073",
    "Postcode": 3888,
    "Suburb": "Orbost",
    "Suburb_Cap": "ORBOST"
  },
  {
    "Address": "8-10 Anderson Street",
    "Email": "leongatha.uni@police.vic.gov.au",
    "Fax": "(03) 56624474",
    "Latitude": "-38.4750466031276",
    "Longitude": "145.945888193972",
    "Name": "Leongatha",
    "Opening_Hours": "Non-24 Hours",
    "Phone": "(03) 56622285",
    "Postcode": 3953,
    "Suburb": "Leongatha",
    "Suburb_Cap": "LEONGATHA"
  },
  {
    "Address": "22 Bridge Street",
    "Email": "korumburra.uni@police.vic.gov.au",
    "Fax": "(03) 56552503",
    "Latitude": "-38.4346487772619",
    "Longitude": "145.824288122999",
    "Name": "Korumburra",
    "Opening_Hours": "Non-24 Hours",
    "Phone": "(03) 56551244",
    "Postcode": 3950,
    "Suburb": "Korumburra",
    "Suburb_Cap": "KORUMBURRA"
  },
  {
    "Address": "3-5 Anzac Street",
    "Email": "MOE.UNI@police.vic.gov.au",
    "Fax": "(03) 51281150",
    "Latitude": "-38.1760941779068",
    "Longitude": "146.265212558232",
    "Name": "Moe",
    "Opening_Hours": "24 hours.",
    "Phone": "(03) 51281100",
    "Postcode": 3825,
    "Suburb": "Moe",
    "Suburb_Cap": "MOE"
  },
  {
    "Address": "414 Burwood Hwy - Location: Knox Police Complex",
    "Email": "maroondah.tmu@police.vic.gov.au",
    "Fax": "(03) 98817087",
    "Latitude": "-37.8698669757292",
    "Longitude": "145.236899933121",
    "Name": "Maroondah HWP",
    "Opening_Hours": "Non-24 Hours",
    "Phone": "(03) 98817900",
    "Postcode": 3152,
    "Suburb": "Wantirna South",
    "Suburb_Cap": "WANTIRNA SOUTH"
  },
  {
    "Address": "19 Bogong High Plains Road",
    "Email": "bright.uni@police.vic.gov.au",
    "Fax": "NA",
    "Latitude": "-36.8635950755486",
    "Longitude": "147.28278683256",
    "Name": "Falls Creek (Snow Season)",
    "Opening_Hours": "Non-24 Hours",
    "Phone": "(03) 57583424",
    "Postcode": 3699,
    "Suburb": "Falls Creek",
    "Suburb_Cap": "FALLS CREEK"
  },
  {
    "Address": "15 Whittlesea-Kinglake Road",
    "Email": "uni.kinglake@police.vic.gov.au",
    "Fax": "(03) 57861833",
    "Latitude": "-37.5315461455438",
    "Longitude": "145.34050620859",
    "Name": "Kinglake",
    "Opening_Hours": "Non-24 Hours",
    "Phone": "(03) 57861333",
    "Postcode": 3763,
    "Suburb": "Kinglake",
    "Suburb_Cap": "KINGLAKE"
  },
  {
    "Address": "17 York Road",
    "Email": "mtevelyn.uni@police.vic.gov.au",
    "Fax": "(03) 97361847",
    "Latitude": "-37.7871685272192",
    "Longitude": "145.380598544699",
    "Name": "Mount Evelyn",
    "Opening_Hours": "Non-24 Hours",
    "Phone": "(03) 97362473",
    "Postcode": 3796,
    "Suburb": "Mount Evelyn",
    "Suburb_Cap": "MOUNT EVELYN"
  },
  {
    "Address": "25 Burley Road",
    "Email": "YARRAWONGA.UNI@police.vic.gov.au",
    "Fax": "(03) 57442326",
    "Latitude": "-36.0208936016327",
    "Longitude": "145.995272781356",
    "Name": "Yarrawonga",
    "Opening_Hours": "Non-24 Hours",
    "Phone": "(03) 57443641",
    "Postcode": 3730,
    "Suburb": "Yarrawonga",
    "Suburb_Cap": "YARRAWONGA"
  },
  {
    "Address": "28 Phillip Island Road",
    "Email": "sanremo.uni@police.vic.gov.au",
    "Fax": "(03) 56785766",
    "Latitude": "-38.5209964239695",
    "Longitude": "145.378368192314",
    "Name": "San Remo",
    "Opening_Hours": "Non-24 Hours",
    "Phone": "(03) 56785500",
    "Postcode": 3925,
    "Suburb": "San Remo",
    "Suburb_Cap": "SAN REMO"
  },
  {
    "Address": "45-47 Main Street",
    "Email": "bairnsdale.uni@police.vic.gov.au",
    "Fax": "(03) 51502610",
    "Latitude": "-37.8258144327061",
    "Longitude": "147.635969653042",
    "Name": "Bairnsdale",
    "Opening_Hours": "24 hours.",
    "Phone": "(03) 51502600",
    "Postcode": 3875,
    "Suburb": "Bairnsdale",
    "Suburb_Cap": "BAIRNSDALE"
  },
  {
    "Address": "2 St Arnaud Road",
    "Email": "WEDDERBURN.UNI@police.vic.gov.au",
    "Fax": "(03) 54943426",
    "Latitude": "-36.4242129632712",
    "Longitude": "143.615853889703",
    "Name": "Wedderburn",
    "Opening_Hours": "Non-24 Hours",
    "Phone": "(03) 5494 3300",
    "Postcode": 3518,
    "Suburb": "Wedderburn",
    "Suburb_Cap": "WEDDERBURN"
  },
  {
    "Address": "44 Station Road",
    "Email": "warburton.uni@police.vic.gov.au",
    "Fax": "(03) 59669433",
    "Latitude": "-37.7546017558428",
    "Longitude": "145.688077265986",
    "Name": "Warburton",
    "Opening_Hours": "Non-24 Hours",
    "Phone": "(03) 59662006",
    "Postcode": 3799,
    "Suburb": "Warburton",
    "Suburb_Cap": "WARBURTON"
  },
  {
    "Address": "2395 Warburton Highway",
    "Email": "yarrajunction.uni@police.vic.gov.au",
    "Fax": "(03) 59671672",
    "Latitude": "-37.7802395591323",
    "Longitude": "145.607034064274",
    "Name": "Yarra Junction",
    "Opening_Hours": "Non-24 Hours",
    "Phone": "(03) 59671104",
    "Postcode": 3797,
    "Suburb": "Yarra Junction",
    "Suburb_Cap": "YARRA JUNCTION"
  },
  {
    "Address": "32 Templeton Street",
    "Email": "UNI-CASTLEMAINE@police.vic.gov.au",
    "Fax": "(03) 5470 4105",
    "Latitude": "-37.0636420368673",
    "Longitude": "144.219275125277",
    "Name": "Castlemaine",
    "Opening_Hours": "24 hours.",
    "Phone": "(03) 5470 4100",
    "Postcode": 3450,
    "Suburb": "Castlemaine",
    "Suburb_Cap": "CASTLEMAINE"
  },
  {
    "Address": "25 Market Street",
    "Email": "cohuna.uni@police.vic.gov.au",
    "Fax": "NA",
    "Latitude": "-35.8113469308608",
    "Longitude": "144.221534919583",
    "Name": "Cohuna",
    "Opening_Hours": "16 hours.",
    "Phone": "(03) 5456 4150",
    "Postcode": 3568,
    "Suburb": "Cohuna",
    "Suburb_Cap": "COHUNA"
  },
  {
    "Address": "17 Main Street",
    "Email": "CULGOA.UNI3CA@police.vic.gov.au",
    "Fax": "(03) 5077 2262",
    "Latitude": "-35.7174107406732",
    "Longitude": "143.106686908086",
    "Name": "Culgoa",
    "Opening_Hours": "Non-24 Hours",
    "Phone": "(03) 5077 2225",
    "Postcode": 3530,
    "Suburb": "Culgoa",
    "Suburb_Cap": "CULGOA"
  },
  {
    "Address": "57 Lloyd Street",
    "Email": "DIMBOOLA.UNI@police.vic.gov.au",
    "Fax": "(03) 5389 1105",
    "Latitude": "-36.4564377243497",
    "Longitude": "142.02781126051",
    "Name": "Dimboola",
    "Opening_Hours": "Non-24 Hours",
    "Phone": "(03) 5389 1470",
    "Postcode": 3414,
    "Suburb": "Dimboola",
    "Suburb_Cap": "DIMBOOLA"
  },
  {
    "Address": "5 Orme Street",
    "Email": "EDENHOPE.UNI@police.vic.gov.au",
    "Fax": "(03) 5585 1534",
    "Latitude": "-37.0363895285178",
    "Longitude": "141.292869243106",
    "Name": "Edenhope",
    "Opening_Hours": "Non-24 Hours",
    "Phone": "(03) 5585 1003",
    "Postcode": 3318,
    "Suburb": "Edenhope",
    "Suburb_Cap": "EDENHOPE"
  },
  {
    "Address": "27 High Street",
    "Email": "ELMHURST.UNI@police.vic.gov.au",
    "Fax": "(03) 5354 8398",
    "Latitude": "-37.1808429561018",
    "Longitude": "143.250506895388",
    "Name": "Elmhurst",
    "Opening_Hours": "Non-24 Hours",
    "Phone": "(03) 5354 8220",
    "Postcode": 3469,
    "Suburb": "Elmhurst",
    "Suburb_Cap": "ELMHURST"
  },
  {
    "Address": "18 Park Street",
    "Email": "BRIDGEWATER.UNI@police.vic.gov.au",
    "Fax": "(03) 5437 3323",
    "Latitude": "-36.6017103033519",
    "Longitude": "143.940015779943",
    "Name": "Bridgewater",
    "Opening_Hours": "Non-24 Hours",
    "Phone": "(03) 5437 3232",
    "Postcode": 3516,
    "Suburb": "Bridgewater",
    "Suburb_Cap": "BRIDGEWATER"
  },
  {
    "Address": "310 Scott Street",
    "Email": "BUNINYONG.UNI@police.vic.gov.au",
    "Fax": "(03) 5341 3363",
    "Latitude": "-37.6515582032621",
    "Longitude": "143.884646276328",
    "Name": "Buninyong",
    "Opening_Hours": "Non-24 Hours",
    "Phone": "(03) 5341 3431",
    "Postcode": 3357,
    "Suburb": "Buninyong",
    "Suburb_Cap": "BUNINYONG"
  },
  {
    "Address": "74 Bailey Street",
    "Email": "TIMBOON.UNI@police.vic.gov.au",
    "Fax": "(03) 5598 3688",
    "Latitude": "-38.4834232191148",
    "Longitude": "142.971168936512",
    "Name": "Timboon",
    "Opening_Hours": "Non-24 Hours",
    "Phone": "(03) 5598 3026",
    "Postcode": 3268,
    "Suburb": "Timboon",
    "Suburb_Cap": "TIMBOON"
  },
  {
    "Address": "72 Miller Street",
    "Email": "TONGALA-UNI-OIC@police.vic.gov.au",
    "Fax": "(03) 5859 0036",
    "Latitude": "-36.249037765477",
    "Longitude": "144.950595298686",
    "Name": "Tongala",
    "Opening_Hours": "Non-24 Hours",
    "Phone": "(03) 5859 0501",
    "Postcode": 3621,
    "Suburb": "Tongala",
    "Suburb_Cap": "TONGALA"
  },
  {
    "Address": "13-39 Rossack Drive",
    "Email": "WAURNPONDSUNI-OIC@police.vic.gov.au",
    "Fax": "(03) 5247 3595",
    "Latitude": "-38.2021258812009",
    "Longitude": "144.312523656866",
    "Name": "Waurn Ponds",
    "Opening_Hours": "Non-24 Hours",
    "Phone": "(03) 5247 3500",
    "Postcode": 3216,
    "Suburb": "Waurn Ponds",
    "Suburb_Cap": "WAURN PONDS"
  },
  {
    "Address": "4886 Wangaratta-Whitfield Road",
    "Email": "WHITFIELD.UNI@police.vic.gov.au",
    "Fax": "(03) 5729 8308",
    "Latitude": "-36.7638669583652",
    "Longitude": "146.414340267316",
    "Name": "Whitfield",
    "Opening_Hours": "NA",
    "Phone": "(03) 5729 8282",
    "Postcode": 3733,
    "Suburb": "Whitfield",
    "Suburb_Cap": "WHITFIELD"
  },
  {
    "Address": "15 Hesse Street",
    "Email": "WINCHELSEA.UNI@police.vic.gov.au",
    "Fax": "(03) 5267 2662",
    "Latitude": "-38.2442605336599",
    "Longitude": "143.989901426834",
    "Name": "Winchelsea",
    "Opening_Hours": "Non-24 Hours",
    "Phone": "(03) 5267 2025",
    "Postcode": 3241,
    "Suburb": "Winchelsea",
    "Suburb_Cap": "WINCHELSEA"
  },
  {
    "Address": "8 Railway Avenue",
    "Email": "YACKANDANDAH-UNI-OIC@police.vic.gov.au",
    "Fax": "(02) 6027 1548",
    "Latitude": "-36.3107217840985",
    "Longitude": "146.842550711445",
    "Name": "Yackandandah",
    "Opening_Hours": "Non-24 Hours",
    "Phone": "(02) 6027 1205",
    "Postcode": 3749,
    "Suburb": "Yackandandah",
    "Suburb_Cap": "YACKANDANDAH"
  },
  {
    "Address": "2-4 High Street",
    "Email": "yea.uni@police.vic.gov.au",
    "Fax": "(03) 5797 2711",
    "Latitude": "-37.2104936965288",
    "Longitude": "145.426718201797",
    "Name": "Yea",
    "Opening_Hours": "Non-24 Hours",
    "Phone": "(03) 5797 2630",
    "Postcode": 3717,
    "Suburb": "Yea",
    "Suburb_Cap": "YEA"
  },
  {
    "Address": "9-17 Thompson Street",
    "Email": "HAMILTON.UNI@police.vic.gov.au",
    "Fax": "(03) 5551 9100",
    "Latitude": "-37.7476758127116",
    "Longitude": "142.026056390448",
    "Name": "Hamilton",
    "Opening_Hours": "24 hours.",
    "Phone": "(03) 5551 9100",
    "Postcode": 3300,
    "Suburb": "Hamilton",
    "Suburb_Cap": "HAMILTON"
  },
  {
    "Address": "92 High Street",
    "Email": "INVERLEIGH.UNI@police.vic.gov.au",
    "Fax": "(03) 5265 1379",
    "Latitude": "-38.1013991381195",
    "Longitude": "144.050567559233",
    "Name": "Inverleigh",
    "Opening_Hours": "Non-24 Hours",
    "Phone": "(03) 5265 1211",
    "Postcode": 3321,
    "Suburb": "Inverleigh",
    "Suburb_Cap": "INVERLEIGH"
  },
  {
    "Address": "14 Hindmarsh Street",
    "Email": "JEPARIT.UNI@police.vic.gov.au",
    "Fax": "(03) 5397 2042",
    "Latitude": "-36.1431459460222",
    "Longitude": "141.988860628548",
    "Name": "Jeparit",
    "Opening_Hours": "Non-24 Hours",
    "Phone": "(03) 5397 2071",
    "Postcode": 3723,
    "Suburb": "Jeparit",
    "Suburb_Cap": "JEPARIT"
  },
  {
    "Address": "2100 Glenelg Highway",
    "Email": "UNI-LAKEBOLAC@police.vic.gov.au",
    "Fax": "(03) 5350 2448",
    "Latitude": "-37.7112120248814",
    "Longitude": "142.841753964389",
    "Name": "Lake Bolac",
    "Opening_Hours": "Non-24 Hours",
    "Phone": "(03) 5350 2310",
    "Postcode": 3351,
    "Suburb": "Lake Bolac",
    "Suburb_Cap": "LAKE BOLAC"
  },
  {
    "Address": "13 Degenhardt Street",
    "Email": "MURTOA.UNI@police.vic.gov.au",
    "Fax": "(03) 5385 2700",
    "Latitude": "-36.6167065105221",
    "Longitude": "142.469637564991",
    "Name": "Murtoa",
    "Opening_Hours": "Non-24 Hours",
    "Phone": "(03) 5385 2252",
    "Postcode": 3390,
    "Suburb": "Murtoa",
    "Suburb_Cap": "MURTOA"
  },
  {
    "Address": "35 Lyons Street",
    "Email": "NEWSTEAD.UNI@police.vic.gov.au",
    "Fax": "(03) 5476 2722",
    "Latitude": "-37.1056142852293",
    "Longitude": "144.063950277423",
    "Name": "Newstead",
    "Opening_Hours": "Non-24 Hours",
    "Phone": "(03) 5476 2250",
    "Postcode": 3462,
    "Suburb": "Newstead",
    "Suburb_Cap": "NEWSTEAD"
  },
  {
    "Address": "50 Nelson Street",
    "Email": "NHILL.UNI@police.vic.gov.au",
    "Fax": "(03) 5391 2093",
    "Latitude": "-36.3331447368658",
    "Longitude": "141.655961828532",
    "Name": "Nhill",
    "Opening_Hours": "Non-24 Hours",
    "Phone": "(03) 5391 1022",
    "Postcode": 3418,
    "Suburb": "Nhill",
    "Suburb_Cap": "NHILL"
  },
  {
    "Address": "17 High Street",
    "Email": "pyalong.uni@police.vic.gov.au",
    "Fax": "(03) 5785 1253",
    "Latitude": "-37.1233220421059",
    "Longitude": "144.856846682747",
    "Name": "Pyalong",
    "Opening_Hours": "Non-24 Hours",
    "Phone": "(03) 5785 1212",
    "Postcode": 3603,
    "Suburb": "Pyalong",
    "Suburb_Cap": "PYALONG"
  },
  {
    "Address": "9 Victoria Street",
    "Email": "PYRAMIDHILL-UNI-OIC@police.vic.gov.au",
    "Fax": "(03) 5455 7444",
    "Latitude": "-36.0549184650698",
    "Longitude": "144.1129521423",
    "Name": "Pyramid Hill",
    "Opening_Hours": "Non-24 Hours",
    "Phone": "(03) 5455 7000",
    "Postcode": 3575,
    "Suburb": "Pyramid Hill",
    "Suburb_Cap": "PYRAMID HILL"
  },
  {
    "Address": "Francis Street",
    "Email": "MALDON.UNI@police.vic.gov.au",
    "Fax": "(03) 5475 2831",
    "Latitude": "-36.9954500515481",
    "Longitude": "144.064891061328",
    "Name": "Maldon",
    "Opening_Hours": "Non-24 Hours",
    "Phone": "(03) 5475 2210",
    "Postcode": 3463,
    "Suburb": "Maldon",
    "Suburb_Cap": "MALDON"
  },
  {
    "Address": "168-170 Sladen Street",
    "Email": "cranbourne.uni@police.vic.gov.au",
    "Fax": "(03) 59910632",
    "Latitude": "-38.1133233063035",
    "Longitude": "145.283130404231",
    "Name": "Cranbourne",
    "Opening_Hours": "24 hours.",
    "Phone": "(03) 59910600",
    "Postcode": 3977,
    "Suburb": "Cranbourne",
    "Suburb_Cap": "CRANBOURNE"
  },
  {
    "Address": "29 Tarwin Street",
    "Email": "boolarra.uni@police.vic.gov.au",
    "Fax": "(03) 51696663",
    "Latitude": "-38.3804732213892",
    "Longitude": "146.272349766694",
    "Name": "Boolarra",
    "Opening_Hours": "NA",
    "Phone": "(03) 51696222",
    "Postcode": 3870,
    "Suburb": "Boolarra",
    "Suburb_Cap": "BOOLARRA"
  },
  {
    "Address": "137 High Street",
    "Email": "hastings.uni@police.vic.gov.au",
    "Fax": "(03) 59707834",
    "Latitude": "-38.3078947823271",
    "Longitude": "145.184772387701",
    "Name": "Hastings",
    "Opening_Hours": "Telephone only (24 hrs), reception counter closed 3:00pm - 7:00am and weekends.",
    "Phone": "(03) 59707800",
    "Postcode": 3915,
    "Suburb": "Hastings",
    "Suburb_Cap": "HASTINGS"
  },
  {
    "Address": "92 Chapel Street",
    "Email": "ST.KILDASTATION-UNI-OIC@police.vic.gov.au",
    "Fax": "(03) 95371196",
    "Latitude": "-37.8678333620628",
    "Longitude": "144.990554387479",
    "Name": "St Kilda",
    "Opening_Hours": "24 hours.",
    "Phone": "(03) 95362666",
    "Postcode": 3182,
    "Suburb": "St Kilda",
    "Suburb_Cap": "ST KILDA"
  },
  {
    "Address": "Moorabbin Court Complex. 1140 Nepean Highway",
    "Email": "moorabbin.caseconf@police.vic.gov.au",
    "Fax": "(03) 90905899",
    "Latitude": "-37.9524641241563",
    "Longitude": "145.047383574904",
    "Name": "Moorabbin Prosecutions",
    "Opening_Hours": "Non-24 Hours",
    "Phone": "(03) 90905888",
    "Postcode": 3190,
    "Suburb": "Highett",
    "Suburb_Cap": "HIGHETT"
  },
  {
    "Address": "197 Eramosa (West) Road",
    "Email": "NA",
    "Fax": "(03) 5978 1499",
    "Latitude": "-38.2212958666704",
    "Longitude": "145.155328464699",
    "Name": "Somerville",
    "Opening_Hours": "Non-24 Hours, No public access - appointment only",
    "Phone": "(03) 5978 1300",
    "Postcode": 3912,
    "Suburb": "Somerville",
    "Suburb_Cap": "SOMERVILLE"
  },
  {
    "Address": "766 Mt Alexander Road",
    "Email": "mooneeponds.uni@police.vic.gov.au",
    "Fax": "(03) 93735210",
    "Latitude": "-37.7647176623142",
    "Longitude": "144.924110038989",
    "Name": "Moonee Ponds",
    "Opening_Hours": "24 hours.",
    "Phone": "(03) 93735200",
    "Postcode": 3039,
    "Suburb": "Moonee Ponds",
    "Suburb_Cap": "MOONEE PONDS"
  },
  {
    "Address": "100 Nelson Place",
    "Email": "WILLIAMSTOWN.UNI@police.vic.gov.au",
    "Fax": "(03) 93939502",
    "Latitude": "-37.8634868304506",
    "Longitude": "144.906279398522",
    "Name": "Williamstown",
    "Opening_Hours": "Non-24 Hours",
    "Phone": "(03) 93939555",
    "Postcode": 3016,
    "Suburb": "Williamstown",
    "Suburb_Cap": "WILLIAMSTOWN"
  },
  {
    "Address": "78-80 Church Street",
    "Email": "whittlesea.uni@police.vic.gov.au",
    "Fax": "(03) 97162528",
    "Latitude": "-37.5102547017495",
    "Longitude": "145.118625344631",
    "Name": "Whittlesea",
    "Opening_Hours": "Non-24 Hours",
    "Phone": "(03) 97162102",
    "Postcode": 3757,
    "Suburb": "Whittlesea",
    "Suburb_Cap": "WHITTLESEA"
  },
  {
    "Address": "497 Ballarat Road",
    "Email": "sunshine.pros@police.vic.gov.au",
    "Fax": "(03) 93133337",
    "Latitude": "-37.7777095246981",
    "Longitude": "144.830962683423",
    "Name": "Sunshine Prosecutions",
    "Opening_Hours": "Non-24 Hours",
    "Phone": "(03) 93133334",
    "Postcode": 3020,
    "Suburb": "Sunshine",
    "Suburb_Cap": "SUNSHINE"
  },
  {
    "Address": "66-76 Moray Street",
    "Email": "southbank-uni-oic@police.vic.gov.au",
    "Fax": "(03) 86350955",
    "Latitude": "-37.8283394301979",
    "Longitude": "144.961053286612",
    "Name": "Southbank",
    "Opening_Hours": "24 hours.",
    "Phone": "(03) 86350900",
    "Postcode": 3006,
    "Suburb": "Southbank",
    "Suburb_Cap": "SOUTHBANK"
  },
  {
    "Address": "6 Monaro Highway",
    "Email": "cannriver.uni@police.vic.gov.au",
    "Fax": "(03) 51586317",
    "Latitude": "-37.5646985408567",
    "Longitude": "149.152160785772",
    "Name": "Cann River",
    "Opening_Hours": "Non-24 Hours",
    "Phone": "(03) 51586202",
    "Postcode": 3890,
    "Suburb": "Cann River",
    "Suburb_Cap": "CANN RIVER"
  },
  {
    "Address": "6 Switchback Road",
    "Email": "churchill.uni@police.vic.gov.au",
    "Fax": "(03) 51223446",
    "Latitude": "-38.307653246536",
    "Longitude": "146.41729837995",
    "Name": "Churchill",
    "Opening_Hours": "Non-24 Hours",
    "Phone": "(03) 51221790",
    "Postcode": 3842,
    "Suburb": "Churchill",
    "Suburb_Cap": "CHURCHILL"
  },
  {
    "Address": "162 Military Road",
    "Email": "avondaleheights.uni@police.vic.gov.au",
    "Fax": "(03) 9244 2203",
    "Latitude": "-37.7557344047825",
    "Longitude": "144.859525270104",
    "Name": "Avondale Heights",
    "Opening_Hours": "24 hours.",
    "Phone": "(03) 93376777",
    "Postcode": 3034,
    "Suburb": "Avondale Heights",
    "Suburb_Cap": "AVONDALE HEIGHTS"
  },
  {
    "Address": "263 Clayton Road",
    "Email": "CLAYTON.UNI@police.vic.gov.au",
    "Fax": "(03) 95435403",
    "Latitude": "-37.9201553013129",
    "Longitude": "145.120406103634",
    "Name": "Clayton",
    "Opening_Hours": "Non-24 Hours, reception counter temporarily suspended.",
    "Phone": "(03) 95433888",
    "Postcode": 3168,
    "Suburb": "Clayton",
    "Suburb_Cap": "CLAYTON"
  },
  {
    "Address": "289 Hawthorn Road",
    "Email": "caulfield.uni@police.vic.gov.au",
    "Fax": "(03) 95249580",
    "Latitude": "-37.8812380661943",
    "Longitude": "145.023300974939",
    "Name": "Caulfield",
    "Opening_Hours": "24 hours.",
    "Phone": "(03) 95249500",
    "Postcode": 3162,
    "Suburb": "Caulfield",
    "Suburb_Cap": "CAULFIELD"
  },
  {
    "Address": "38 Johnson Street",
    "Email": "maffra.uni@police.vic.gov.au",
    "Fax": "(03) 51473188",
    "Latitude": "-37.9649325968442",
    "Longitude": "146.973427954484",
    "Name": "Maffra",
    "Opening_Hours": "Non-24 Hours",
    "Phone": "(03) 51471026",
    "Postcode": 3860,
    "Suburb": "Maffra",
    "Suburb_Cap": "MAFFRA"
  },
  {
    "Address": "69-71 Main Street",
    "Email": "Foster.uni@police.vic.gov.au",
    "Fax": "(03) 56822896",
    "Latitude": "-38.6521470316473",
    "Longitude": "146.202423128135",
    "Name": "Foster",
    "Opening_Hours": "Non-24 Hours",
    "Phone": "(03) 56822407",
    "Postcode": 3960,
    "Suburb": "Foster",
    "Suburb_Cap": "FOSTER"
  },
  {
    "Address": "139 Whitelaw Street",
    "Email": "meeniyan.uni@police.vic.gov.au",
    "Fax": "(03) 5664754",
    "Latitude": "-38.5800774248799",
    "Longitude": "146.010673416781",
    "Name": "Meeniyan",
    "Opening_Hours": "Non-24 Hours",
    "Phone": "(03) 56647281",
    "Postcode": 3956,
    "Suburb": "Meeniyan",
    "Suburb_Cap": "MEENIYAN"
  },
  {
    "Address": "66 Blake Street",
    "Email": "NATHALIA.UNI@police.vic.gov.au",
    "Fax": "(03) 5866 2083",
    "Latitude": "-36.0597608230829",
    "Longitude": "145.203402276317",
    "Name": "Nathalia",
    "Opening_Hours": "Non-24 Hours",
    "Phone": "(03) 5866 3005",
    "Postcode": 3638,
    "Suburb": "Nathalia",
    "Suburb_Cap": "NATHALIA"
  },
  {
    "Address": "1 Atherton Road",
    "Email": "oakleigh.uni@police.vic.gov.au",
    "Fax": "(03) 95631731",
    "Latitude": "-37.8980018998572",
    "Longitude": "145.087977408055",
    "Name": "Oakleigh",
    "Opening_Hours": "24 hours.",
    "Phone": "(03) 95678900",
    "Postcode": 3166,
    "Suburb": "Oakleigh",
    "Suburb_Cap": "OAKLEIGH"
  },
  {
    "Address": "17 Jardine Street",
    "Email": "corryong.uni@police.vic.gov.au",
    "Fax": "(02) 60761715",
    "Latitude": "-36.1944118873106",
    "Longitude": "147.90388103529",
    "Name": "Corryong",
    "Opening_Hours": "Non-24 Hours",
    "Phone": "(02) 60761666",
    "Postcode": 3707,
    "Suburb": "Corryong",
    "Suburb_Cap": "CORRYONG"
  },
  {
    "Address": "5 Hillside Avenue South",
    "Email": "eildon.uni@police.vic.gov.au",
    "Fax": "(03) 57742768",
    "Latitude": "-37.232183042541",
    "Longitude": "145.910483823965",
    "Name": "Eildon",
    "Opening_Hours": "Non-24 Hours",
    "Phone": "(03) 57742104",
    "Postcode": 3713,
    "Suburb": "Eildon",
    "Suburb_Cap": "EILDON"
  },
  {
    "Address": "40 Kirkland Avenue",
    "Email": "euroa.uni@police.vic.gov.au",
    "Fax": "(03) 57953787",
    "Latitude": "-36.7517283145642",
    "Longitude": "145.572614153546",
    "Name": "Euroa",
    "Opening_Hours": "Non-24 Hours",
    "Phone": "(03) 57952017",
    "Postcode": 3666,
    "Suburb": "Euroa",
    "Suburb_Cap": "EUROA"
  },
  {
    "Address": "31 Ringwood Street",
    "Email": "ringwood.uni@police.vic.gov.au",
    "Fax": "(03) 98713024",
    "Latitude": "-37.8129982027546",
    "Longitude": "145.22713334221",
    "Name": "Ringwood",
    "Opening_Hours": "24 hours.",
    "Phone": "(03) 98713000",
    "Postcode": 3134,
    "Suburb": "Ringwood",
    "Suburb_Cap": "RINGWOOD"
  },
  {
    "Address": "27 Contingent Street",
    "Email": "TRAFALGAR.UNI@opolice.vic.gov.au",
    "Fax": "(03) 56332166",
    "Latitude": "-38.2126189976078",
    "Longitude": "146.154057616132",
    "Name": "Trafalgar",
    "Opening_Hours": "Non-24 Hours",
    "Phone": "(03) 56331188",
    "Postcode": 3825,
    "Suburb": "Trafalgar",
    "Suburb_Cap": "TRAFALGAR"
  },
  {
    "Address": "15-17 Kay Street",
    "Email": "TRARALGON.UNI@police.vic.gov.au",
    "Fax": "(03) 92442308",
    "Latitude": "-38.1948116132072",
    "Longitude": "146.536677378529",
    "Name": "Traralgon",
    "Opening_Hours": "24 hours.",
    "Phone": "(03) 51722700",
    "Postcode": 3844,
    "Suburb": "Traralgon",
    "Suburb_Cap": "TRARALGON"
  },
  {
    "Address": "123 Commercial Road",
    "Email": "yarram.uni@police.vic.gov.au",
    "Fax": "(03) 51826096",
    "Latitude": "-38.5600058898455",
    "Longitude": "146.677392208149",
    "Name": "Yarram",
    "Opening_Hours": "Non-24 Hours",
    "Phone": "(03) 51825033",
    "Postcode": 3971,
    "Suburb": "Yarram",
    "Suburb_Cap": "YARRAM"
  },
  {
    "Address": "89 Tyers Street",
    "Email": "stratford.uni@police.vic.gov.au",
    "Fax": "03) 51456269",
    "Latitude": "-37.963480617363",
    "Longitude": "147.08024936273",
    "Name": "Startford",
    "Opening_Hours": "Non-24 Hours",
    "Phone": "(03) 51456404",
    "Postcode": 3862,
    "Suburb": "Startford",
    "Suburb_Cap": "STARTFORD"
  },
  {
    "Address": "37 Martin Street",
    "Email": "PENSHURST.UNI@police.vic.gov.au",
    "Fax": "(03) 55765577",
    "Latitude": "-37.8743998578099",
    "Longitude": "142.289710516058",
    "Name": "Penshurst",
    "Opening_Hours": "Non-24 Hours",
    "Phone": "(03) 55765222",
    "Postcode": 3289,
    "Suburb": "Penshurst",
    "Suburb_Cap": "PENSHURST"
  },
  {
    "Address": "30 Fulham Road",
    "Email": "rowville.uni@police.vic.gov.au",
    "Fax": "(03) 97640950",
    "Latitude": "-37.918846270843",
    "Longitude": "145.238624987616",
    "Name": "Rowville",
    "Opening_Hours": "Non-24 Hours",
    "Phone": "(03) 97640996",
    "Postcode": 3178,
    "Suburb": "Rowville",
    "Suburb_Cap": "ROWVILLE"
  },
  {
    "Address": "414 Burwood Hwy",
    "Email": "knox.uni@police.vic.gov.au",
    "Fax": "(03) 98817010",
    "Latitude": "-37.8698684995262",
    "Longitude": "145.236898857604",
    "Name": "Knox",
    "Opening_Hours": "24 hours.",
    "Phone": "(03) 98817000",
    "Postcode": 3152,
    "Suburb": "Wantirna South",
    "Suburb_Cap": "WANTIRNA SOUTH"
  },
  {
    "Address": "469 Springvale Road",
    "Email": "FORESTHILL-UNI-OIC@police.vic.gov.au",
    "Fax": "(03) 88473690",
    "Latitude": "-37.8457897684502",
    "Longitude": "145.171318190074",
    "Name": "Forest Hill",
    "Opening_Hours": "24 hours, reception counter temporarily suspended.",
    "Phone": "(03) 88473600",
    "Postcode": 3133,
    "Suburb": "Vermont South",
    "Suburb_Cap": "VERMONT SOUTH"
  },
  {
    "Address": "20 Dana Street",
    "Email": "BALLARAT.UNI@police.vic.gov.au",
    "Fax": "(03) 53366033",
    "Latitude": "-37.5641965552674",
    "Longitude": "143.859193027085",
    "Name": "Ballarat",
    "Opening_Hours": "24 hours.",
    "Phone": "(03) 53366000",
    "Postcode": 3350,
    "Suburb": "Ballarat",
    "Suburb_Cap": "BALLARAT"
  },
  {
    "Address": "304-306 Allan Street",
    "Email": "kyabram.uni@police.vic.gov.au",
    "Fax": "(03) 58523263",
    "Latitude": "-36.3136861190033",
    "Longitude": "145.05255388471",
    "Name": "Kyabram",
    "Opening_Hours": "NA",
    "Phone": "(03) 58531777",
    "Postcode": 3620,
    "Suburb": "Kyabram",
    "Suburb_Cap": "KYABRAM"
  },
  {
    "Address": "61-63 McLeod Street",
    "Email": "COLERAINE.UNI@police.vic.gov.au",
    "Fax": "(03) 5575 2267",
    "Latitude": "-37.5998317451528",
    "Longitude": "141.693127469106",
    "Name": "Coleraine",
    "Opening_Hours": "Non-24 Hours",
    "Phone": "(03) 5575 2267",
    "Postcode": 3315,
    "Suburb": "Coleraine",
    "Suburb_Cap": "COLERAINE"
  },
  {
    "Address": "117 Bacchus Marsh Road",
    "Email": "CORIO.UNI@police.vic.gov.au",
    "Fax": "(03) 5275 2067",
    "Latitude": "-38.0736550074828",
    "Longitude": "144.358263748687",
    "Name": "Corio",
    "Opening_Hours": "24 hours.",
    "Phone": "(03) 5273 9555",
    "Postcode": 3214,
    "Suburb": "Corio",
    "Suburb_Cap": "CORIO"
  },
  {
    "Address": "13 Byrne Street",
    "Email": "UNI-DONALD@police.vic.gov.au",
    "Fax": "(03) 5497 1831",
    "Latitude": "-36.3736800903143",
    "Longitude": "142.984026236236",
    "Name": "Donald",
    "Opening_Hours": "Non-24 Hours",
    "Phone": "(03) 5497 1530",
    "Postcode": 3480,
    "Suburb": "Donald",
    "Suburb_Cap": "DONALD"
  },
  {
    "Address": "11-13 Eversley Street",
    "Email": "NA",
    "Fax": "(03) 5253 1763",
    "Latitude": "-38.1748290628884",
    "Longitude": "144.569712416376",
    "Name": "Drysdale",
    "Opening_Hours": "Non-24 Hours",
    "Phone": "(03) 5253 1763",
    "Postcode": 3222,
    "Suburb": "Drysdale",
    "Suburb_Cap": "DRYSDALE"
  },
  {
    "Address": "9 Brazier Street",
    "Email": "EAGLEHAWK.UNI@police.vic.gov.au",
    "Fax": "(03) 5446 3181",
    "Latitude": "-36.7204688475297",
    "Longitude": "144.255739913234",
    "Name": "Eaglehawk",
    "Opening_Hours": "Non-24 Hours",
    "Phone": "(03) 5446 3911",
    "Postcode": 3556,
    "Suburb": "Eaglehawk",
    "Suburb_Cap": "EAGLEHAWK"
  },
  {
    "Address": "60 Hervey Street",
    "Email": "ELMORE.UNI@police.vic.gov.au",
    "Fax": "(03) 5432 6624",
    "Latitude": "-36.4958683592282",
    "Longitude": "144.611144519535",
    "Name": "Elmore",
    "Opening_Hours": "Non-24 Hours",
    "Phone": "(03) 5432 6004",
    "Postcode": 3558,
    "Suburb": "Elmore",
    "Suburb_Cap": "ELMORE"
  },
  {
    "Address": "56-58 Midland Highway",
    "Email": "GOORNONG.UNI@police.vic.gov.au",
    "Fax": "(03) 5432 2437",
    "Latitude": "-36.6140247396359",
    "Longitude": "144.509225509428",
    "Name": "Goornong",
    "Opening_Hours": "Non-24 Hours",
    "Phone": "(03) 5432 2207",
    "Postcode": 3557,
    "Suburb": "Goornong",
    "Suburb_Cap": "GOORNONG"
  },
  {
    "Address": "86 Main Street",
    "Email": "GORDON.UNI@police.vic.gov.au",
    "Fax": "(03) 5368 9504",
    "Latitude": "-37.579791444502",
    "Longitude": "144.101527058927",
    "Name": "Gordon",
    "Opening_Hours": "Non-24 Hours",
    "Phone": "(03) 5368 9202",
    "Postcode": 3345,
    "Suburb": "Gordon",
    "Suburb_Cap": "GORDON"
  },
  {
    "Address": "74 Grampians Road",
    "Email": "HALLSGAP-UNI-2HG-OIC@police.vic.gov.au",
    "Fax": "(03) 5356 4475",
    "Latitude": "-37.1363906622903",
    "Longitude": "142.519276813073",
    "Name": "Halls Gap",
    "Opening_Hours": "Non-24 Hours",
    "Phone": "(03) 5356 4411",
    "Postcode": 3381,
    "Suburb": "Halls Gap",
    "Suburb_Cap": "HALLS GAP"
  },
  {
    "Address": "89 Grant Street",
    "Email": "INGLEWOOD-UNI-OIC@police.vic.gov.au",
    "Fax": "(03) 5438 3440",
    "Latitude": "-36.5757378831084",
    "Longitude": "143.870107984121",
    "Name": "Inglewood",
    "Opening_Hours": "Non-24 Hours",
    "Phone": "(03) 5438 3200",
    "Postcode": 3517,
    "Suburb": "Inglewood",
    "Suburb_Cap": "INGLEWOOD"
  },
  {
    "Address": "124 Murray Valley Highway",
    "Email": "LAKEBOGA-UNI-OIC@police.vic.gov.au",
    "Fax": "(03) 5037 2755",
    "Latitude": "-35.4595648776417",
    "Longitude": "143.631549870723",
    "Name": "Lake Boga",
    "Opening_Hours": "Non-24 Hours",
    "Phone": "(03) 5037 2201",
    "Postcode": 3584,
    "Suburb": "Lake Boga",
    "Suburb_Cap": "LAKE BOGA"
  },
  {
    "Address": "57 Main Road",
    "Email": "LANCEFIELD.UNI@police.vic.gov.au",
    "Fax": "(03) 5429 2183",
    "Latitude": "-37.2784765980634",
    "Longitude": "144.735602272874",
    "Name": "Lancefield",
    "Opening_Hours": "Non-24 Hours",
    "Phone": "(03) 5429 2000",
    "Postcode": 3435,
    "Suburb": "Lancefield",
    "Suburb_Cap": "LANCEFIELD"
  },
  {
    "Address": "5079 Longford-Loch Sport Road",
    "Email": "ELSUNI@police.vic.gov.au",
    "Fax": "(03) 5146 0626",
    "Latitude": "-38.0578617622463",
    "Longitude": "147.567503879581",
    "Name": "Loch Sport",
    "Opening_Hours": "Non-24 Hours",
    "Phone": "(03) 5146 0556",
    "Postcode": 3851,
    "Suburb": "Loch Sport",
    "Suburb_Cap": "LOCH SPORT"
  },
  {
    "Address": "12 Market Street",
    "Email": "MACARTHUR.UNI@police.vic.gov.au",
    "Fax": "(03) 5576 1322",
    "Latitude": "-38.0324875010104",
    "Longitude": "142.000847609847",
    "Name": "Macarthur",
    "Opening_Hours": "Non-24 Hours",
    "Phone": "(03) 5576 1122",
    "Postcode": 3286,
    "Suburb": "Macarthur",
    "Suburb_Cap": "MACARTHUR"
  },
  {
    "Address": "74 Mollison Street",
    "Email": "MALMSBURY.UNI@police.vic.gov.au",
    "Fax": "(03) 5423 2443",
    "Latitude": "-37.1882240807732",
    "Longitude": "144.384996084405",
    "Name": "Malmsbury",
    "Opening_Hours": "Non-24 Hours",
    "Phone": "(03) 5423 2382",
    "Postcode": 3446,
    "Suburb": "Malmsbury",
    "Suburb_Cap": "MALMSBURY"
  },
  {
    "Address": "32 Officer Street",
    "Email": "MORTLAKE.UNI@police.vic.gov.au",
    "Fax": "(03) 5599 2761",
    "Latitude": "-38.0816015164546",
    "Longitude": "142.808059132109",
    "Name": "Mortlake",
    "Opening_Hours": "Non-24 Hours",
    "Phone": "(03) 5599 2501",
    "Postcode": 3272,
    "Suburb": "Mortlake",
    "Suburb_Cap": "MORTLAKE"
  },
  {
    "Address": "117 Main Street",
    "Email": "BACCHUSMARSH.UNI@police.vic.gov.au",
    "Fax": "(03) 9244 2204",
    "Latitude": "-37.6757634924176",
    "Longitude": "144.43591513396",
    "Name": "Bacchus Marsh",
    "Opening_Hours": "24 hours.",
    "Phone": "(03) 5366 4500",
    "Postcode": 3340,
    "Suburb": "Bacchus Marsh",
    "Suburb_Cap": "BACCHUS MARSH"
  },
  {
    "Address": "51 High Street",
    "Email": "BANNOCKBURN.UNI@police.vic.gov.au",
    "Fax": "(03) 5281 1873",
    "Latitude": "-38.0500846796859",
    "Longitude": "144.168488891861",
    "Name": "Bannockburn",
    "Opening_Hours": "Non-24 Hours",
    "Phone": "(03) 5281 1260",
    "Postcode": 3331,
    "Suburb": "Bannockburn",
    "Suburb_Cap": "BANNOCKBURN"
  },
  {
    "Address": "Corner Williams & High Street",
    "Email": "beechworth.uni@police.vic.gov.au",
    "Fax": "(03) 5728 1945",
    "Latitude": "-36.3588008599374",
    "Longitude": "146.689456431807",
    "Name": "Beechworth",
    "Opening_Hours": "Non-24 Hours",
    "Phone": "(03) 5728 1032",
    "Postcode": 3747,
    "Suburb": "Beechworth",
    "Suburb_Cap": "BEECHWORTH"
  },
  {
    "Address": "8 Station Street",
    "Email": "BOORT.UNI@police.vic.gov.au",
    "Fax": "(03) 5455 2311",
    "Latitude": "-36.1160873207393",
    "Longitude": "143.723468278075",
    "Name": "Boort",
    "Opening_Hours": "Non-24 Hours",
    "Phone": "(03) 5455 2000",
    "Postcode": 3537,
    "Suburb": "Boort",
    "Suburb_Cap": "BOORT"
  },
  {
    "Address": "93-97 Monroe Street",
    "Email": "BRANXHOLME.UNI@police.vic.gov.au",
    "Fax": "(03) 5578 6377",
    "Latitude": "-37.857792654312",
    "Longitude": "141.798861692559",
    "Name": "Branxholme",
    "Opening_Hours": "Non-24 Hours",
    "Phone": "(03) 5578 6222",
    "Postcode": 3302,
    "Suburb": "Branxholme",
    "Suburb_Cap": "BRANXHOLME"
  },
  {
    "Address": "32 Officer Street",
    "Email": "MORTLAKE.UNI@police.vic.gov.au",
    "Fax": "(03) 5599 2761",
    "Latitude": "-38.081604115677",
    "Longitude": "142.808059628258",
    "Name": "Mortlake",
    "Opening_Hours": "Non-24 Hours",
    "Phone": "(03) 5599 2501",
    "Postcode": 3272,
    "Suburb": "Mortlake",
    "Suburb_Cap": "MORTLAKE"
  },
  {
    "Address": "14 Filson Street",
    "Email": "nagambie.uni@police.vic.gov.au",
    "Fax": "(03) 5794 2770",
    "Latitude": "-36.7882801508166",
    "Longitude": "145.154291191575",
    "Name": "Nagambie",
    "Opening_Hours": "Non-24 Hours",
    "Phone": "(03) 5794 2526",
    "Postcode": 3608,
    "Suburb": "Nagambie",
    "Suburb_Cap": "NAGAMBIE"
  },
  {
    "Address": "39 Main Street",
    "Email": "NATIMUK.UNI@police.vic.gov.au",
    "Fax": "(03) 5387 1562",
    "Latitude": "-36.7397249929374",
    "Longitude": "141.947042407378",
    "Name": "Natimuk",
    "Opening_Hours": "Non-24 Hours",
    "Phone": "(03) 5387 1280",
    "Postcode": 3409,
    "Suburb": "Natimuk",
    "Suburb_Cap": "NATIMUK"
  },
  {
    "Address": "19 Pickering Street",
    "Email": "UNI-OUYEN@police.vic.gov.au",
    "Fax": "(03) 5092 1769",
    "Latitude": "-35.0700129328472",
    "Longitude": "142.315328657913",
    "Name": "Ouyen",
    "Opening_Hours": "Non-24 Hours",
    "Phone": "(03) 5092 2502",
    "Postcode": 3490,
    "Suburb": "Ouyen",
    "Suburb_Cap": "OUYEN"
  },
  {
    "Address": "2 Glenelg Street",
    "Email": "PORTLAND.UNI@police.vic.gov.au",
    "Fax": "(03) 5522 1555",
    "Latitude": "-38.3524298435344",
    "Longitude": "141.608010727093",
    "Name": "Portland",
    "Opening_Hours": "24 hours.",
    "Phone": "(03) 5522 1500",
    "Postcode": 3305,
    "Suburb": "Portland",
    "Suburb_Cap": "PORTLAND"
  },
  {
    "Address": "9 Jacaranda Street corner Goulburn Avenue",
    "Email": "REDCLIFFS-UNI-OIC@police.vic.gov.au",
    "Fax": "(03) 5024 1992",
    "Latitude": "-34.3040445300692",
    "Longitude": "142.186659647408",
    "Name": "Red Cliffs",
    "Opening_Hours": "Non-24 Hours",
    "Phone": "(03) 5024 1201",
    "Postcode": 3496,
    "Suburb": "Red Cliffs",
    "Suburb_Cap": "RED CLIFFS"
  },
  {
    "Address": "44 Birdwood Avenue",
    "Email": "STANHOPE.UNI@police.vic.gov.au",
    "Fax": "(03) 5857 2791",
    "Latitude": "-36.4464329221397",
    "Longitude": "144.985098748734",
    "Name": "Stanhope",
    "Opening_Hours": "Non-24 Hours",
    "Phone": "(03) 5857 2507",
    "Postcode": 3723,
    "Suburb": "Stanhope",
    "Suburb_Cap": "STANHOPE"
  },
  {
    "Address": "507 Campbell Street",
    "Email": "UNI-SWANHILL@police.vic.gov.au",
    "Fax": "(03) 5036 1609",
    "Latitude": "-35.3559332030099",
    "Longitude": "143.562648124973",
    "Name": "Swan Hill",
    "Opening_Hours": "24 hours.",
    "Phone": "(03) 5036 1600",
    "Postcode": 3585,
    "Suburb": "Swan Hill",
    "Suburb_Cap": "SWAN HILL"
  },
  {
    "Address": "35 Cotter Street",
    "Email": "UNI-UNDERBOOL@police.vic.gov.au",
    "Fax": "(03) 5094 6212",
    "Latitude": "-35.1700902237698",
    "Longitude": "141.809907916107",
    "Name": "Underbool",
    "Opening_Hours": "Non-24 Hours",
    "Phone": "(03) 5094 6211",
    "Postcode": 3509,
    "Suburb": "Underbool",
    "Suburb_Cap": "UNDERBOOL"
  },
  {
    "Address": "21-33 Handley Street",
    "Email": "WANGARATTA.UNI@police.vic.gov.au",
    "Fax": "(03) 5723 0652",
    "Latitude": "-36.3609056835671",
    "Longitude": "146.314135072935",
    "Name": "Wangaratta",
    "Opening_Hours": "24 hours.",
    "Phone": "(03) 5723 0888",
    "Postcode": 3677,
    "Suburb": "Wangaratta",
    "Suburb_Cap": "WANGARATTA"
  },
  {
    "Address": "18-18A Woolcock Street",
    "Email": "WARRACKNABEAL.UNI@police.vic.gov.au",
    "Fax": "(03) 5398 1898",
    "Latitude": "-36.2505764206819",
    "Longitude": "142.39395282403",
    "Name": "Warracknabeal",
    "Opening_Hours": "Non-24 Hours",
    "Phone": "(03) 5398 1044",
    "Postcode": 3393,
    "Suburb": "Warracknabeal",
    "Suburb_Cap": "WARRACKNABEAL"
  },
  {
    "Address": "80 Main Street",
    "Email": "WILLAURA.UNI@police.vic.gov.au",
    "Fax": "(03) 5354 1577",
    "Latitude": "-37.5460028686186",
    "Longitude": "142.741116180264",
    "Name": "Willaura",
    "Opening_Hours": "Non-24 Hours",
    "Phone": "(03) 5354 1281",
    "Postcode": 3379,
    "Suburb": "Willaura",
    "Suburb_Cap": "WILLAURA"
  },
  {
    "Address": "100 Hovell Street",
    "Email": "WODONGA.UNI@police.vic.gov.au",
    "Fax": "(02) 6049 2605",
    "Latitude": "-36.1222694563618",
    "Longitude": "146.889986995348",
    "Name": "Wodonga",
    "Opening_Hours": "24 hours.",
    "Phone": "(02) 6049 2600",
    "Postcode": 3690,
    "Suburb": "Wodonga",
    "Suburb_Cap": "WODONGA"
  },
  {
    "Address": "80 Heatherton Road",
    "Email": "endeavourhills-UNI-5EH-OIC@police.vic.gov.au",
    "Fax": "(03) 97097667",
    "Latitude": "-37.9757695340064",
    "Longitude": "145.261692361134",
    "Name": "Endeavour Hills",
    "Opening_Hours": "Telephone only (non-24 hrs), reception counter closed 5:00pm - 9:00am",
    "Phone": "(03) 97097666",
    "Postcode": 3802,
    "Suburb": "Endeavour Hills",
    "Suburb_Cap": "ENDEAVOUR HILLS"
  },
  {
    "Address": "24 Dowling Street",
    "Email": "bendoc.uni@police.vic.gov.au",
    "Fax": "(02) 64581477",
    "Latitude": "-37.1470746920483",
    "Longitude": "148.884728100831",
    "Name": "Bendoc",
    "Opening_Hours": "Non-24 Hours Reception Hours only 0900-1700 (Two Days per Week)",
    "Phone": "(02) 64581444",
    "Postcode": 3888,
    "Suburb": "Bendoc",
    "Suburb_Cap": "BENDOC"
  },
  {
    "Address": "13-19 Bridge Street",
    "Email": "benalla.uni@police.vic.gov.au",
    "Fax": "(03) 9244 2208",
    "Latitude": "-36.555642343198",
    "Longitude": "145.975684424846",
    "Name": "Benalla",
    "Opening_Hours": "24 hours.",
    "Phone": "(03) 57600200",
    "Postcode": 3672,
    "Suburb": "Benalla",
    "Suburb_Cap": "BENALLA"
  },
  {
    "Address": "6-8 Main Street",
    "Email": "mornington.uni@police.vic.gov.au",
    "Fax": "(03) 59758616",
    "Latitude": "-38.2163841776966",
    "Longitude": "145.036738850448",
    "Name": "Mornington",
    "Opening_Hours": "24 Hours, reception counter closed 3:00pm - 7:00am.",
    "Phone": "(03) 59704900",
    "Postcode": 3931,
    "Suburb": "Mornington",
    "Suburb_Cap": "MORNINGTON"
  },
  {
    "Address": "2 Dundas Street",
    "Email": "rye.uni@police.vic.gov.au",
    "Fax": "(03) 59857878",
    "Latitude": "-38.3705081193344",
    "Longitude": "144.818963773778",
    "Name": "Rye",
    "Opening_Hours": "Non-24 Hours",
    "Phone": "(03) 59852582",
    "Postcode": 3941,
    "Suburb": "Rye",
    "Suburb_Cap": "RYE"
  },
  {
    "Address": "211 Bank Street",
    "Email": "southmelbourne.uni@police.vic.gov.au",
    "Fax": "(03) 96995019",
    "Latitude": "-37.8348745349225",
    "Longitude": "144.959570241788",
    "Name": "South Melbourne",
    "Opening_Hours": "24 hours.",
    "Phone": "(03) 92573800",
    "Postcode": 3205,
    "Suburb": "South Melbourne",
    "Suburb_Cap": "SOUTH MELBOURNE"
  },
  {
    "Address": "134-140 Princes Highway",
    "Email": "WERRIBEE.UNI@police.vic.gov.au",
    "Fax": "(03) 97429446",
    "Latitude": "-37.8944199938528",
    "Longitude": "144.681472665341",
    "Name": "Werribee",
    "Opening_Hours": "24 hours.",
    "Phone": "(03) 97429444",
    "Postcode": 3030,
    "Suburb": "Werribee",
    "Suburb_Cap": "WERRIBEE"
  },
  {
    "Address": "1151 Sydney Road",
    "Email": "FAWKNER.UNI@police.vic.gov.au",
    "Fax": "(03) 93556004",
    "Latitude": "-37.7182194008566",
    "Longitude": "144.961942763122",
    "Name": "Fawkner",
    "Opening_Hours": "24 hours.",
    "Phone": "(03) 93556000",
    "Postcode": 3046,
    "Suburb": "Hadfield",
    "Suburb_Cap": "HADFIELD"
  },
  {
    "Address": "7 Jika Street",
    "Email": "heidelberg.uni@police.vic.gov.au",
    "Fax": "(03) 92442250",
    "Latitude": "-37.7575597255604",
    "Longitude": "145.070864519704",
    "Name": "Heidelberg",
    "Opening_Hours": "24 hours.",
    "Phone": "(03) 94508000",
    "Postcode": 3084,
    "Suburb": "Heidelberg",
    "Suburb_Cap": "HEIDELBERG"
  },
  {
    "Address": "57-83 Kavanagh Street",
    "Email": "NA",
    "Fax": "(03) 86851120",
    "Latitude": "-37.8241612464253",
    "Longitude": "144.964516354688",
    "Name": "State Coroner's Assistant's Unit",
    "Opening_Hours": "Non-24 Hours",
    "Phone": "(03) 86851131",
    "Postcode": 3006,
    "Suburb": "Southbank",
    "Suburb_Cap": "SOUTHBANK"
  },
  {
    "Address": "497 Ballarat Road",
    "Email": "SUNSHINE.UNI@police.vic.gov.au",
    "Fax": "(03) 93133300",
    "Latitude": "-37.7777103154018",
    "Longitude": "144.830964474671",
    "Name": "Sunshine",
    "Opening_Hours": "24 hours.",
    "Phone": "(03) 93133333",
    "Postcode": 3020,
    "Suburb": "Sunshine",
    "Suburb_Cap": "SUNSHINE"
  },
  {
    "Address": "Level 2, 456 Lonsdale Street",
    "Email": "prosecutions.research@police.vic.gov.au",
    "Fax": "(03) 96707563",
    "Latitude": "-37.812986011773",
    "Longitude": "144.958635435714",
    "Name": "Prosecutions Research & Training",
    "Opening_Hours": "Non-24 Hours",
    "Phone": "(03) 86283280",
    "Postcode": 3000,
    "Suburb": "Melbourne",
    "Suburb_Cap": "MELBOURNE"
  },
  {
    "Address": "64 Burwood Hwy",
    "Email": "burwood.uni@police.vic.gov.au",
    "Fax": "(03) 98888643",
    "Latitude": "-37.8509294940968",
    "Longitude": "145.098145767612",
    "Name": "Burwood",
    "Opening_Hours": "CLOSED",
    "Phone": "(03) 98888377",
    "Postcode": 3125,
    "Suburb": "Burwood",
    "Suburb_Cap": "BURWOOD"
  },
  {
    "Address": "317 Camberwell Road",
    "Email": "CAMBERWELL.UNI@police.vic.gov.au",
    "Fax": "(03) 9244 2214",
    "Latitude": "-37.833309796702",
    "Longitude": "145.059205644924",
    "Name": "Camberwell",
    "Opening_Hours": "24 hours.",
    "Phone": "(03) 98820688",
    "Postcode": 3124,
    "Suburb": "Camberwell",
    "Suburb_Cap": "CAMBERWELL"
  },
  {
    "Address": "1-3 Roadknight Street",
    "Email": "lakesentrance.uni@police.vic.gov.au",
    "Fax": "(03) 51554099",
    "Latitude": "-37.8771465644456",
    "Longitude": "147.99451592069",
    "Name": "Lakes Entrance",
    "Opening_Hours": "Non-24 Hours",
    "Phone": "(03) 51551206",
    "Postcode": 3909,
    "Suburb": "Lakes Entrance",
    "Suburb_Cap": "LAKES ENTRANCE"
  },
  {
    "Address": "10-12 Victoria Road",
    "Email": "loch.uni@police.vic.gov.au",
    "Fax": "(03) 56594283",
    "Latitude": "-38.368696021422",
    "Longitude": "145.7038956969",
    "Name": "Loch",
    "Opening_Hours": "Non-24 Hours",
    "Phone": "(03) 56594267",
    "Postcode": 3945,
    "Suburb": "Loch",
    "Suburb_Cap": "LOCH"
  },
  {
    "Address": "36 Lyons Street",
    "Email": "rosedale.uni@police.vic.gov.au",
    "Fax": "(03) 51992755",
    "Latitude": "-38.1507312335535",
    "Longitude": "146.789327757818",
    "Name": "Rosedale",
    "Opening_Hours": "Non-24 Hours",
    "Phone": "(03) 51992222",
    "Postcode": 3847,
    "Suburb": "Rosedale",
    "Suburb_Cap": "ROSEDALE"
  },
  {
    "Address": "1-11 Reeve Street corner Foster Street",
    "Email": "sale.uni@police.vic.gov.au",
    "Fax": "(03) 5144 7753",
    "Latitude": "-38.1111110204009",
    "Longitude": "147.060613295507",
    "Name": "Sale",
    "Opening_Hours": "24 hours.",
    "Phone": "(03) 51422200",
    "Postcode": 3850,
    "Suburb": "Sale",
    "Suburb_Cap": "SALE"
  },
  {
    "Address": "34 Harp Road",
    "Email": "boroondara.uniC@police.vic.gov.au",
    "Fax": "(03) 98599204",
    "Latitude": "-37.7996536772364",
    "Longitude": "145.051865963259",
    "Name": "Boroondara (Kew)",
    "Opening_Hours": "24 hours.",
    "Phone": "(03) 88511111",
    "Postcode": 3101,
    "Suburb": "Kew",
    "Suburb_Cap": "KEW"
  },
  {
    "Address": "64-68 Main Street",
    "Email": "CHILTERN.UNI@police.vic.gov.au",
    "Fax": "(03) 57261542",
    "Latitude": "-36.1480821939546",
    "Longitude": "146.61063555586",
    "Name": "Chiltern",
    "Opening_Hours": "Non-24 Hours",
    "Phone": "(03) 57261222",
    "Postcode": 3683,
    "Suburb": "Chiltern",
    "Suburb_Cap": "CHILTERN"
  },
  {
    "Address": "217-225 Church Street",
    "Email": "RICHMOND.UNI@police.vic.gov.au",
    "Fax": "(03) 84203656",
    "Latitude": "-37.8173705429283",
    "Longitude": "144.999720659933",
    "Name": "Richmond",
    "Opening_Hours": "24 hours.",
    "Phone": "(03) 84203600",
    "Postcode": 3121,
    "Suburb": "Richmond",
    "Suburb_Cap": "RICHMOND"
  },
  {
    "Address": "39-41 Macedon Street",
    "Email": "sunbury-uni-oic@police.vic.gov.au",
    "Fax": "(03) 97448185",
    "Latitude": "-37.5796723841672",
    "Longitude": "144.735674307214",
    "Name": "Sunbury",
    "Opening_Hours": "24 hours.",
    "Phone": "(03) 97448111",
    "Postcode": 3429,
    "Suburb": "Sunbury",
    "Suburb_Cap": "SUNBURY"
  },
  {
    "Address": "6894 Great Alpine Road",
    "Email": "swiftscreek.uni@police.vic.gov.au",
    "Fax": "(03) 51594321",
    "Latitude": "-37.2621311032576",
    "Longitude": "147.720964344221",
    "Name": "Swifts Creek",
    "Opening_Hours": "Non-24 Hours",
    "Phone": "(03) 51594333",
    "Postcode": 3896,
    "Suburb": "Swifts Creek",
    "Suburb_Cap": "SWIFTS CREEK"
  },
  {
    "Address": "195 Hogan Street",
    "Email": "Tatura.uni@police.vic.gov.au",
    "Fax": "(03) 58242529",
    "Latitude": "-36.4399530660362",
    "Longitude": "145.231398421791",
    "Name": "Tatura",
    "Opening_Hours": "Non-24 Hours",
    "Phone": "(03) 58243099",
    "Postcode": 3616,
    "Suburb": "Tatura",
    "Suburb_Cap": "TATURA"
  },
  {
    "Address": "22 Nash Street",
    "Email": "jamieson.uni@police.vic.gov.au",
    "Fax": "(03) 57770755",
    "Latitude": "-37.3033510447345",
    "Longitude": "146.138195193418",
    "Name": "Jamieson",
    "Opening_Hours": "Non-24 Hours",
    "Phone": "(03) 57770505",
    "Postcode": 3723,
    "Suburb": "Jamieson",
    "Suburb_Cap": "JAMIESON"
  },
  {
    "Address": "111 Powlett Street",
    "Email": "kilmore.uni@police.vic.gov.au",
    "Fax": "(03) 57821640",
    "Latitude": "-37.3070617746717",
    "Longitude": "144.949855809024",
    "Name": "Kilmore",
    "Opening_Hours": "Non-24 Hours, reception counter temporarily suspended.",
    "Phone": "(03) 57821211",
    "Postcode": 3764,
    "Suburb": "Kilmore",
    "Suburb_Cap": "KILMORE"
  },
  {
    "Address": "6 Station Street",
    "Email": "NA",
    "Fax": "(03) 57485716",
    "Latitude": "-36.1650353606177",
    "Longitude": "145.880826176063",
    "Name": "Tungamah",
    "Opening_Hours": "Non-24 Hours",
    "Phone": "(03) 57485508",
    "Postcode": 3728,
    "Suburb": "Tungamah",
    "Suburb_Cap": "TUNGAMAH"
  },
  {
    "Address": "4396 Kiewa Valley Highway",
    "Email": "NA",
    "Fax": "(02) 60289267",
    "Latitude": "-36.4714648433064",
    "Longitude": "147.017570226694",
    "Name": "Dederang",
    "Opening_Hours": "Non-24 Hours",
    "Phone": "(02) 60289310",
    "Postcode": 3691,
    "Suburb": "Dederang",
    "Suburb_Cap": "DEDERANG"
  },
  {
    "Address": "13 Condell Street",
    "Email": "FITZROY.UNI@police.vic.gov.au",
    "Fax": "(03) 99346407",
    "Latitude": "-37.8022294889021",
    "Longitude": "144.979029192138",
    "Name": "Fitzroy",
    "Opening_Hours": "24 hours.",
    "Phone": "(03) 99346400",
    "Postcode": 3065,
    "Suburb": "Fitzroy",
    "Suburb_Cap": "FITZROY"
  },
  {
    "Address": "202-204 Bourke Street",
    "Email": "melbourneeast-uni-oic@police.vic.gov.au",
    "Fax": "(03) 9650 7237",
    "Latitude": "-37.8128428112043",
    "Longitude": "144.967267781221",
    "Name": "Melbourne East",
    "Opening_Hours": "24 hours.",
    "Phone": "(03) 96371100",
    "Postcode": 3000,
    "Suburb": "Melbourne East",
    "Suburb_Cap": "MELBOURNE EAST"
  },
  {
    "Address": "2B Park Street",
    "Email": "mt.beauty.uni@police.vic.gov.au",
    "Fax": "(03) 57544933",
    "Latitude": "-36.7440533128425",
    "Longitude": "147.171360757509",
    "Name": "Mount Beauty",
    "Opening_Hours": "Non-24 Hours",
    "Phone": "(03) 57544244",
    "Postcode": 3699,
    "Suburb": "Mount Beauty",
    "Suburb_Cap": "MOUNT BEAUTY"
  },
  {
    "Address": "Great Alpine Road",
    "Email": "bright.uni@police.vic.gov.au",
    "Fax": "(03) 57593535",
    "Latitude": "-36.9920848942842",
    "Longitude": "147.149491982408",
    "Name": "Mount Hotham (Ski season only)",
    "Opening_Hours": "Non-24 Hours",
    "Phone": "(03) 57593535",
    "Postcode": 3741,
    "Suburb": "Hotham Heights",
    "Suburb_Cap": "HOTHAM HEIGHTS"
  },
  {
    "Address": "5554 Omeo Hwy",
    "Email": "MITTAMITTA-UNI-OIC@police.vic.gov.au",
    "Fax": "(02) 60723502",
    "Latitude": "-36.5372857923514",
    "Longitude": "147.377820834138",
    "Name": "Mitta Mitta",
    "Opening_Hours": "Non-24 Hours",
    "Phone": "(02) 60723564",
    "Postcode": 3701,
    "Suburb": "Mitta Mitta",
    "Suburb_Cap": "MITTA MITTA"
  },
  {
    "Address": "55 Great Ocean Road",
    "Email": "ANGLESEA.UNI@police.vic.gov.au",
    "Fax": "(03) 52632031",
    "Latitude": "-38.4033918364829",
    "Longitude": "144.192207800671",
    "Name": "Anglesea",
    "Opening_Hours": "Non-24 Hours",
    "Phone": "(03) 52633468",
    "Postcode": 3230,
    "Suburb": "Anglesea",
    "Suburb_Cap": "ANGLESEA"
  },
  {
    "Address": "148 High Street",
    "Email": "AVOCA.UNI@police.vic.gov.au",
    "Fax": "(03) 54653699",
    "Latitude": "-37.0871689282151",
    "Longitude": "143.474094678958",
    "Name": "Avoca",
    "Opening_Hours": "Non-24 Hours",
    "Phone": "(03) 54653300",
    "Postcode": 3467,
    "Suburb": "Avoca",
    "Suburb_Cap": "AVOCA"
  },
  {
    "Address": "2 Hannah Street",
    "Email": "CLUNES.UNI@police.vic.gov.au",
    "Fax": "(03) 5345 3794",
    "Latitude": "-37.2952699804116",
    "Longitude": "143.783514586888",
    "Name": "Clunes",
    "Opening_Hours": "Non-24 Hours",
    "Phone": "(03) 5345 3211",
    "Postcode": 3266,
    "Suburb": "Clunes",
    "Suburb_Cap": "CLUNES"
  },
  {
    "Address": "12 Vincent Street",
    "Email": "DAYLESFORD.UNI@police.vic.gov.au",
    "Fax": "(03) 5348 2279",
    "Latitude": "-37.340377456175",
    "Longitude": "144.142614146716",
    "Name": "Daylesford",
    "Opening_Hours": "Non-24 Hours",
    "Phone": "(03) 5348 2342",
    "Postcode": 3460,
    "Suburb": "Daylesford",
    "Suburb_Cap": "DAYLESFORD"
  },
  {
    "Address": "69 Parker Street",
    "Email": "DUNKELD.UNI@police.vic.gov.au",
    "Fax": "(03) 5577 2544",
    "Latitude": "-37.6500377488676",
    "Longitude": "142.345415727216",
    "Name": "Dunkeld",
    "Opening_Hours": "Non-24 Hours",
    "Phone": "(03) 5577 2260",
    "Postcode": 3294,
    "Suburb": "Dunkeld",
    "Suburb_Cap": "DUNKELD"
  },
  {
    "Address": "35-41 Robertson Street",
    "Email": "GISBORNE.UNI@police.vic.gov.au",
    "Fax": "(03) 5428 4045",
    "Latitude": "-37.485260041934",
    "Longitude": "144.585418765515",
    "Name": "Gisborne",
    "Opening_Hours": "Non-24 Hours",
    "Phone": "(03) 5428 2500",
    "Postcode": 3437,
    "Suburb": "Gisborne",
    "Suburb_Cap": "GISBORNE"
  },
  {
    "Address": "140 High Street",
    "Email": "HEATHCOTE.UNI@police.vic.gov.au",
    "Fax": "(03) 5433 3033",
    "Latitude": "-36.9216635183707",
    "Longitude": "144.709212364919",
    "Name": "Heathcote",
    "Opening_Hours": "Non-24 Hours",
    "Phone": "(03) 5433 3711",
    "Postcode": 3523,
    "Suburb": "Heathcote",
    "Suburb_Cap": "HEATHCOTE"
  },
  {
    "Address": "81 Commercial Street East",
    "Email": "KANIVA.UNI@police.vic.gov.au",
    "Fax": "(03) 5392 2520",
    "Latitude": "-36.3788548874969",
    "Longitude": "141.241829057628",
    "Name": "Kaniva",
    "Opening_Hours": "Non-24 Hours",
    "Phone": "(03) 5392 2244",
    "Postcode": 3419,
    "Suburb": "Kaniva",
    "Suburb_Cap": "KANIVA"
  },
  {
    "Address": "97 Commercial Road",
    "Email": "KOROIT.UNI@police.vic.gov.au",
    "Fax": "(03) 5565 8931",
    "Latitude": "-38.2923741430998",
    "Longitude": "142.367885025498",
    "Name": "Koroit",
    "Opening_Hours": "Non-24 Hours",
    "Phone": "(03) 5565 8202",
    "Postcode": 3282,
    "Suburb": "Koroit",
    "Suburb_Cap": "KOROIT"
  },
  {
    "Address": "65 Main Street",
    "Email": "UNI-KOONDROOK@police.vic.gov.au",
    "Fax": "(03) 5453 1039",
    "Latitude": "-35.6449982574872",
    "Longitude": "144.131314087061",
    "Name": "Koondrook",
    "Opening_Hours": "Non-24 Hours",
    "Phone": "(03) 5453 1555",
    "Postcode": 3580,
    "Suburb": "Koondrook",
    "Suburb_Cap": "KOONDROOK"
  },
  {
    "Address": "16 Jennings Street",
    "Email": "KYNETON.UNI@police.vic.gov.au",
    "Fax": "(03) 5421 2919",
    "Latitude": "-37.2474619053057",
    "Longitude": "144.451788180769",
    "Name": "Kyneton",
    "Opening_Hours": "24 hours.",
    "Phone": "(03) 5421 2900",
    "Postcode": 3444,
    "Suburb": "Kyneton",
    "Suburb_Cap": "KYNETON"
  },
  {
    "Address": "19 Splatt Street",
    "Email": "APSLEY.UNI@police.vic.gov.au",
    "Fax": "(03) 5586 1375",
    "Latitude": "-36.9666981399016",
    "Longitude": "141.083733134352",
    "Name": "Apsley",
    "Opening_Hours": "Non-24 Hours",
    "Phone": "(03) 5586 1210",
    "Postcode": 3319,
    "Suburb": "Apsley",
    "Suburb_Cap": "APSLEY"
  },
  {
    "Address": "33A Grant Street",
    "Email": "alexandra.uni@police.vic.gov.au",
    "Fax": "(03) 9244 2202",
    "Latitude": "-37.1885579226835",
    "Longitude": "145.707850855234",
    "Name": "Alexandra",
    "Opening_Hours": "Non-24 Hours",
    "Phone": "(03) 5772 1040",
    "Postcode": 3714,
    "Suburb": "Alexandra",
    "Suburb_Cap": "ALEXANDRA"
  },
  {
    "Address": "221 High Street",
    "Email": "BENDIGO.UNI@police.vic.gov.au",
    "Fax": "(03) 9244 2209",
    "Latitude": "-36.7670302087939",
    "Longitude": "144.266975698226",
    "Name": "Bendigo",
    "Opening_Hours": "24 hours.",
    "Phone": "(03) 5448 1300",
    "Postcode": 3550,
    "Suburb": "Bendigo",
    "Suburb_Cap": "BENDIGO"
  },
  {
    "Address": "95 Cumming Avenue",
    "Email": "UNI-BIRCHIP@police.vic.gov.au",
    "Fax": "(03) 5492 2632",
    "Latitude": "-35.9798279801257",
    "Longitude": "142.917563827172",
    "Name": "Birchip",
    "Opening_Hours": "Non-24 Hours",
    "Phone": "(03) 5492 2300",
    "Postcode": 3483,
    "Suburb": "Birchip",
    "Suburb_Cap": "BIRCHIP"
  },
  {
    "Address": "59-61 Lord Street",
    "Email": "PORTCAMPBELL-UNI-OIC@police.vic.gov.au",
    "Fax": "(03) 5598 6370",
    "Latitude": "-38.6177914294725",
    "Longitude": "142.998021587344",
    "Name": "Port Campbell",
    "Opening_Hours": "Non-24 Hours",
    "Phone": "(03) 5598 6310",
    "Postcode": 3269,
    "Suburb": "Port Campbell",
    "Suburb_Cap": "PORT CAMPBELL"
  },
  {
    "Address": "23 Lake Street",
    "Email": "RAINBOW.UNI@police.vic.gov.au",
    "Fax": "(03) 5395 1400",
    "Latitude": "-35.9019438543527",
    "Longitude": "141.996431461445",
    "Name": "Rainbow",
    "Opening_Hours": "Non-24 Hours",
    "Phone": "(03) 5395 1051",
    "Postcode": 3424,
    "Suburb": "Rainbow",
    "Suburb_Cap": "RAINBOW"
  },
  {
    "Address": "60 Cromie Street",
    "Email": "RUPANYUP.UNI@police.vic.gov.au",
    "Fax": "(03) 5385 5351",
    "Latitude": "-36.6330919782508",
    "Longitude": "142.630697852743",
    "Name": "Rupanyup",
    "Opening_Hours": "Non-24 Hours",
    "Phone": "(03) 5385 5078",
    "Postcode": 3388,
    "Suburb": "Rupanyup",
    "Suburb_Cap": "RUPANYUP"
  },
  {
    "Address": "73 High Street",
    "Email": "RUSHWORTH.UNI@police.vic.gov.au",
    "Fax": "(03) 5856 1877",
    "Latitude": "-36.5904109496046",
    "Longitude": "145.016668279952",
    "Name": "Rushworth",
    "Opening_Hours": "Non-24 Hours",
    "Phone": "(03) 5856 1000",
    "Postcode": 3612,
    "Suburb": "Rushworth",
    "Suburb_Cap": "RUSHWORTH"
  },
  {
    "Address": "102 Horace Street",
    "Email": "SEALAKE-UNI-OIC@police.vic.gov.au",
    "Fax": "(03) 5070 1246",
    "Latitude": "-35.5024595664163",
    "Longitude": "142.849781503659",
    "Name": "Sea Lake",
    "Opening_Hours": "Non-24 Hours",
    "Phone": "(03) 5070 1301",
    "Postcode": 3533,
    "Suburb": "Sea Lake",
    "Suburb_Cap": "SEA LAKE"
  },
  {
    "Address": "44 Smith Street",
    "Email": "LORNE.UNI@police.vic.gov.au",
    "Fax": "(03) 5289 1010",
    "Latitude": "-38.5408670125723",
    "Longitude": "143.973740446468",
    "Name": "Lorne",
    "Opening_Hours": "Non-24 Hours",
    "Phone": "(03) 5289 2712",
    "Postcode": 3232,
    "Suburb": "Lorne",
    "Suburb_Cap": "LORNE"
  },
  {
    "Address": "22 Annesley Street",
    "Email": "MERINO.UNI@police.vic.gov.au",
    "Fax": "(03) 5579 1205",
    "Latitude": "-37.7202712233514",
    "Longitude": "141.54994766992",
    "Name": "Merino",
    "Opening_Hours": "Non-24 Hours",
    "Phone": "(03) 5579 1205",
    "Postcode": 3310,
    "Suburb": "Merino",
    "Suburb_Cap": "MERINO"
  },
  {
    "Address": "1 Chamois Close",
    "Email": "mansfield.uni@police.vic.gov.au",
    "Fax": "(03) 5777 6608",
    "Latitude": "-37.1463606384191",
    "Longitude": "146.451422666479",
    "Name": "Mount Buller (ski season only)",
    "Opening_Hours": "Non-24 Hours",
    "Phone": "(03) 5777 6172",
    "Postcode": 3723,
    "Suburb": "Mount Buller",
    "Suburb_Cap": "MOUNT BULLER"
  },
  {
    "Address": "13 Reed Street",
    "Email": "UNI-MURRAYVILLE@police.vic.gov.au",
    "Fax": "(03) 5095 2271",
    "Latitude": "-35.2640559212617",
    "Longitude": "141.182660714571",
    "Name": "Murrayville",
    "Opening_Hours": "Non-24 Hours",
    "Phone": "(03) 5095 2170",
    "Postcode": 3512,
    "Suburb": "Murrayville",
    "Suburb_Cap": "MURRAYVILLE"
  },
  {
    "Address": "122-128 Surf Coast Highway",
    "Email": "TORQUAY.UNI@police.vic.gov.au",
    "Fax": "(03) 5264 3444",
    "Latitude": "-38.3255550953198",
    "Longitude": "144.317950541334",
    "Name": "Torquay",
    "Opening_Hours": "Non-24 Hours",
    "Phone": "(03) 5264 3400",
    "Postcode": 3228,
    "Suburb": "Torquay",
    "Suburb_Cap": "TORQUAY"
  },
  {
    "Address": "53 Cowslip Street",
    "Email": "violettown.uni@police.vic.gov.au",
    "Fax": "(03) 5798 1669",
    "Latitude": "-36.6362333020488",
    "Longitude": "145.715393032125",
    "Name": "Violet Town",
    "Opening_Hours": "Non-24 Hours",
    "Phone": "(03) 5798 1316",
    "Postcode": 3669,
    "Suburb": "Violet Town",
    "Suburb_Cap": "VIOLET TOWN"
  },
  {
    "Address": "637 Flinders Street",
    "Email": "NA",
    "Fax": "(03) 92473707",
    "Latitude": "-37.8220758218602",
    "Longitude": "144.953010474486",
    "Name": "Transit Safety Division",
    "Opening_Hours": "24 hours.",
    "Phone": "(03) 92473300",
    "Postcode": 3008,
    "Suburb": "Docklands",
    "Suburb_Cap": "DOCKLANDS"
  },
  {
    "Address": "630 Sydney Road",
    "Email": "brunswick.uni@police.vic.gov.au",
    "Fax": "(03) 83786066",
    "Latitude": "-37.7628022050567",
    "Longitude": "144.962985404024",
    "Name": "Brunswick",
    "Opening_Hours": "24 hours.",
    "Phone": "(03) 83786000",
    "Postcode": 3056,
    "Suburb": "Brunswick",
    "Suburb_Cap": "BRUNSWICK"
  },
  {
    "Address": "155 Craigieburn Road",
    "Email": "CRAIGIEBURN.UNI@police.vic.gov.au",
    "Fax": "(03) 93034404",
    "Latitude": "-37.598433158518",
    "Longitude": "144.932994213447",
    "Name": "Craigieburn",
    "Opening_Hours": "24 hours.",
    "Phone": "(03) 93034433",
    "Postcode": 3064,
    "Suburb": "Craigieburn",
    "Suburb_Cap": "CRAIGIEBURN"
  },
  {
    "Address": "83 Main Hurstbridge Road",
    "Email": "diamondcreek.uni@police.vic.gov.au",
    "Fax": "(03) 94388319",
    "Latitude": "-37.6738969232957",
    "Longitude": "145.160625064978",
    "Name": "Diamond Creek",
    "Opening_Hours": "Non-24 Hours",
    "Phone": "(03) 94388300",
    "Postcode": 3089,
    "Suburb": "Diamond Creek",
    "Suburb_Cap": "DIAMOND CREEK"
  },
  {
    "Address": "25-31 Abbott Street",
    "Email": "bayside-uni-oic@police.vic.gov.au",
    "Fax": "(03) 85305107",
    "Latitude": "-37.9485276872839",
    "Longitude": "145.003855494057",
    "Name": "Bayside",
    "Opening_Hours": "24 hours.",
    "Phone": "(03) 85305100",
    "Postcode": 3191,
    "Suburb": "Sandringham",
    "Suburb_Cap": "SANDRINGHAM"
  },
  {
    "Address": "4 Pearson Street",
    "Email": "BUNYIP-UNI-OIC@police.vic.gov.au",
    "Fax": "(03) 56295999",
    "Latitude": "-38.097501874883",
    "Longitude": "145.717788608263",
    "Name": "Bunyip",
    "Opening_Hours": "Telephone only (non 24 hours), reception counter closed.",
    "Phone": "(03) 56295205",
    "Postcode": 3815,
    "Suburb": "Bunyip",
    "Suburb_Cap": "BUNYIP"
  },
  {
    "Address": "1 Kangerong Road",
    "Email": "BOXHILL.UNI@police.vic.gov.au",
    "Fax": "(03) 88923203",
    "Latitude": "-37.8182276094608",
    "Longitude": "145.127398861588",
    "Name": "Box Hill",
    "Opening_Hours": "24 hours.",
    "Phone": "(03) 88923200",
    "Postcode": 3128,
    "Suburb": "Box Hill",
    "Suburb_Cap": "BOX HILL"
  },
  {
    "Address": "8-10 Hotham Road",
    "Email": "sorrento.uni@police.vic.gov.au",
    "Fax": "(03) 59844579",
    "Latitude": "-38.335958752429",
    "Longitude": "144.742322913754",
    "Name": "Sorrento",
    "Opening_Hours": "Non-24 Hours",
    "Phone": "(03) 59842000",
    "Postcode": 3943,
    "Suburb": "Sorrento",
    "Suburb_Cap": "SORRENTO"
  },
  {
    "Address": "95 Boneo Road",
    "Email": "rosebud.uni@police.vic.gov.au",
    "Fax": "(03) 59867206",
    "Latitude": "-38.3697619558748",
    "Longitude": "144.889610824315",
    "Name": "Rosebud",
    "Opening_Hours": "24 hours.",
    "Phone": "(03) 59860444",
    "Postcode": 3939,
    "Suburb": "Rosebud",
    "Suburb_Cap": "ROSEBUD"
  },
  {
    "Address": "42 Ballarto Road",
    "Email": "SD4-DOSO-OIC@police.vic.gov.au",
    "Fax": "(03) 87704192",
    "Latitude": "-38.1149154094138",
    "Longitude": "145.173140989877",
    "Name": "Frankston DIU",
    "Opening_Hours": "Non-24 Hours",
    "Phone": "(03) 87704188",
    "Postcode": 3201,
    "Suburb": "Carrum Downs",
    "Suburb_Cap": "CARRUM DOWNS"
  },
  {
    "Address": "42 Ballarto Road",
    "Email": "CARRUMDOWNS-UNI-OIC@police.vic.gov.au",
    "Fax": "(03) 87704102",
    "Latitude": "-38.1149154094138",
    "Longitude": "145.173140989877",
    "Name": "Carrum Downs",
    "Opening_Hours": "Telephone only (non-24 hrs), reception counter closed.",
    "Phone": "(03) 87704100",
    "Postcode": 3201,
    "Suburb": "Frankston North",
    "Suburb_Cap": "FRANKSTON NORTH"
  },
  {
    "Address": "785 High Street",
    "Email": "EPPING.UNI@police.vic.gov.au",
    "Fax": "(03) 94098186",
    "Latitude": "-37.6469802510685",
    "Longitude": "145.025869737387",
    "Name": "Epping",
    "Opening_Hours": "24 hours.",
    "Phone": "(03) 94098100",
    "Postcode": 3076,
    "Suburb": "Epping",
    "Suburb_Cap": "EPPING"
  },
  {
    "Address": "66 Hyde Street corner Hyde & Napier Street",
    "Email": "footscray-uni-oic@police.vic.gov.au",
    "Fax": "(03) 83989853",
    "Latitude": "-37.8039270753757",
    "Longitude": "144.901396800504",
    "Name": "Footscray",
    "Opening_Hours": "24 hours.",
    "Phone": "(03) 83989800",
    "Postcode": 3011,
    "Suburb": "Footscray",
    "Suburb_Cap": "FOOTSCRAY"
  },
  {
    "Address": "790 Main Road",
    "Email": "hurstbridge.uni@police.vic.gov.au",
    "Fax": "(03) 97181612",
    "Latitude": "-37.6397766848201",
    "Longitude": "145.19295654124",
    "Name": "Hurstbridge",
    "Opening_Hours": "Non-24 Hours",
    "Phone": "(03) 97182111",
    "Postcode": 3099,
    "Suburb": "Hurstbridge",
    "Suburb_Cap": "HURSTBRIDGE"
  },
  {
    "Address": "Victoria Police Centre, Level 2, 456 Lonsdale St",
    "Email": "SUBPOENA-SERVICE-SMU@police.vic.gov.au",
    "Fax": "(03) 92475528",
    "Latitude": "-37.8139803273545",
    "Longitude": "144.951146440972",
    "Name": "Subpoena Management Unit",
    "Opening_Hours": "Non-24 Hours",
    "Phone": "(03) 86283010",
    "Postcode": 3008,
    "Suburb": "Docklands",
    "Suburb_Cap": "DOCKLANDS"
  },
  {
    "Address": "Level 8, 456 Lonsdale Street",
    "Email": "melbourne.pros@police.vic.gov.au",
    "Fax": "(03) 96705473",
    "Latitude": "-37.8129841025565",
    "Longitude": "144.958633117628",
    "Name": "Melbourne Prosecutions",
    "Opening_Hours": "Non-24 Hours",
    "Phone": "(03) 86283200",
    "Postcode": 3001,
    "Suburb": "Melbourne",
    "Suburb_Cap": "MELBOURNE"
  },
  {
    "Address": "36 Wreckyn Street",
    "Email": "MELBOURNENORTH-UNI-OIC@police.vic.gov.au",
    "Fax": "(03) 8379 0888",
    "Latitude": "-37.8001719960447",
    "Longitude": "144.954636418573",
    "Name": "Melbourne North",
    "Opening_Hours": "24 hours.",
    "Phone": "(03) 83790800",
    "Postcode": 3051,
    "Suburb": "North Melbourne",
    "Suburb_Cap": "NORTH MELBOURNE"
  },
  {
    "Address": "313 Spencer Street",
    "Email": "melbournewest.precinctpolicing@police.vic.gov.au",
    "Fax": "NA",
    "Latitude": "-37.8139036767989",
    "Longitude": "144.951490568099",
    "Name": "Melbourne West Precinct Policing",
    "Opening_Hours": "24 hours.",
    "Phone": "(03) 86904444",
    "Postcode": 3008,
    "Suburb": "Docklands",
    "Suburb_Cap": "DOCKLANDS"
  },
  {
    "Address": "610 Sayers Road",
    "Email": "WYNDHAM-UNI-OIC@police.vic.gov.au",
    "Fax": "(03) 8734 1130",
    "Latitude": "-37.8475825552348",
    "Longitude": "144.687114190195",
    "Name": "Wyndham North",
    "Opening_Hours": "Non-24 Hours",
    "Phone": "(03) 87341100",
    "Postcode": 3029,
    "Suburb": "Tarneit",
    "Suburb_Cap": "TARNEIT"
  },
  {
    "Address": "9-11 Jika Street",
    "Email": "heidelberg.pros@police.vic.gov.au",
    "Fax": "(03) 94508170",
    "Latitude": "-37.7575603546855",
    "Longitude": "145.070865034285",
    "Name": "Heidelberg Prosecutions",
    "Opening_Hours": "Non-24 Hours",
    "Phone": "(03) 94508160",
    "Postcode": 3084,
    "Suburb": "Heidelberg",
    "Suburb_Cap": "HEIDELBERG"
  },
  {
    "Address": "7 Park Street",
    "Email": "bright.uni@police.vic.gov.au",
    "Fax": "(03) 57552009",
    "Latitude": "-36.7322424618833",
    "Longitude": "146.962171777804",
    "Name": "Bright",
    "Opening_Hours": "Non-24 Hours",
    "Phone": "(03) 57551444",
    "Postcode": 3741,
    "Suburb": "Bright",
    "Suburb_Cap": "BRIGHT"
  },
  {
    "Address": "45 Main Street",
    "Email": "bruthen.uni@police.vic.gov.au",
    "Fax": "(03) 51575640",
    "Latitude": "-37.7072715792243",
    "Longitude": "147.831270963374",
    "Name": "Bruthen",
    "Opening_Hours": "Non-24 Hours",
    "Phone": "(03) 51575221",
    "Postcode": 3885,
    "Suburb": "Bruthen",
    "Suburb_Cap": "BRUTHEN"
  },
  {
    "Address": "32 William Street",
    "Email": "COBRAM.UNI@police.vic.gov.au",
    "Fax": "(03) 58721443",
    "Latitude": "-35.9204547230617",
    "Longitude": "145.651023892302",
    "Name": "Cobram",
    "Opening_Hours": "Non-24 Hours",
    "Phone": "(03) 58711977",
    "Postcode": 3644,
    "Suburb": "Cobram",
    "Suburb_Cap": "COBRAM"
  },
  {
    "Address": "19-21 Saxon Street",
    "Email": "NUMURKAH.UNI@police.vic.gov.au",
    "Fax": "(03) 58622796",
    "Latitude": "-36.0885318322694",
    "Longitude": "145.444354300848",
    "Name": "Numurkah",
    "Opening_Hours": "Non-24 Hours",
    "Phone": "(03) 58623311",
    "Postcode": 3636,
    "Suburb": "Numurkah",
    "Suburb_Cap": "NUMURKAH"
  },
  {
    "Address": "119 McLennan Street",
    "Email": "mooroopna.uni@police.vic.gov.au",
    "Fax": "(03) 58251166",
    "Latitude": "-36.3954168415065",
    "Longitude": "145.356133958955",
    "Name": "Mooroopna",
    "Opening_Hours": "Non-24 Hours",
    "Phone": "(03) 58254131",
    "Postcode": 3629,
    "Suburb": "Mooroopna",
    "Suburb_Cap": "MOOROOPNA"
  },
  {
    "Address": "77 Ridgeway",
    "Email": "MIRBOONORTH-UNI-OIC@police.vic.gov.au",
    "Fax": "(03) 56681728",
    "Latitude": "-38.4009164213246",
    "Longitude": "146.158886131124",
    "Name": "Mirboo North",
    "Opening_Hours": "Non-24 Hours",
    "Phone": "(03) 56681444",
    "Postcode": 3871,
    "Suburb": "Mirboo North",
    "Suburb_Cap": "MIRBOO NORTH"
  },
  {
    "Address": "8-10 Hazelwood Road",
    "Email": "MORWELL-UNI-EML-OIC@police.vic.gov.au",
    "Fax": "(03) 51317010",
    "Latitude": "-38.2372831774794",
    "Longitude": "146.394373323451",
    "Name": "Morwell",
    "Opening_Hours": "24 hours.",
    "Phone": "(03) 51315000",
    "Postcode": 3840,
    "Suburb": "Morwell",
    "Suburb_Cap": "MORWELL"
  },
  {
    "Address": "38 Maurice Avenue",
    "Email": "mallacoota.uni@police.vic.gov.au",
    "Fax": "(03) 51580576",
    "Latitude": "-37.5585950107642",
    "Longitude": "149.755342046126",
    "Name": "Mallacoota",
    "Opening_Hours": "Non-24 Hours",
    "Phone": "(03) 51580280",
    "Postcode": 3892,
    "Suburb": "Mallacoota",
    "Suburb_Cap": "MALLACOOTA"
  },
  {
    "Address": "Pinnacle Drive",
    "Email": "RAWSON.UNI@police.vic.gov.au",
    "Fax": "(03) 51653433",
    "Latitude": "-37.9553140638736",
    "Longitude": "146.397670747721",
    "Name": "Rawson",
    "Opening_Hours": "Non-24 Hours",
    "Phone": "(03) 51653444",
    "Postcode": 3825,
    "Suburb": "Rawson",
    "Suburb_Cap": "RAWSON"
  },
  {
    "Address": "74 Gladstone Street",
    "Email": "glenrowan.uni@police.vic.gov.au",
    "Fax": "(03) 57662201",
    "Latitude": "-36.4634818426105",
    "Longitude": "146.227350568642",
    "Name": "Glenrowan",
    "Opening_Hours": "Non-24 Hours",
    "Phone": "(03) 57662215",
    "Postcode": 3675,
    "Suburb": "Glenrowan",
    "Suburb_Cap": "GLENROWAN"
  },
  {
    "Address": "58 Main Road",
    "Email": "monbulk.uni@police.vic.gov.au",
    "Fax": "(03) 97520159",
    "Latitude": "-37.8752149770388",
    "Longitude": "145.40769622121",
    "Name": "Monbulk",
    "Opening_Hours": "Non-24 Hours",
    "Phone": "(03) 97566266",
    "Postcode": 3793,
    "Suburb": "Monbulk",
    "Suburb_Cap": "MONBULK"
  },
  {
    "Address": "92-94 High Street",
    "Email": "mansfield.uni@police.vic.gov.au",
    "Fax": "(03) 57751276",
    "Latitude": "-37.0524182498379",
    "Longitude": "146.086936814747",
    "Name": "Mansfield",
    "Opening_Hours": "Non-24 Hours",
    "Phone": "(03) 57752555",
    "Postcode": 3722,
    "Suburb": "Mansfield",
    "Suburb_Cap": "MANSFIELD"
  },
  {
    "Address": "188 Hull Road",
    "Email": "mooroolbark.uni@police.vic.gov.au",
    "Fax": "(03) 97251760",
    "Latitude": "-37.7893566182795",
    "Longitude": "145.311014540801",
    "Name": "Mooroolbark",
    "Opening_Hours": "24 hours.",
    "Phone": "(03) 97259999",
    "Postcode": 3138,
    "Suburb": "Mooroolbark",
    "Suburb_Cap": "MOOROOLBARK"
  },
  {
    "Address": "167 High Street",
    "Email": "RUTHERGLEN.UNI@police.vic.gov.au",
    "Fax": "(02) 60329165",
    "Latitude": "-36.0564884380092",
    "Longitude": "146.458656490981",
    "Name": "Rutherglen",
    "Opening_Hours": "Non-24 Hours",
    "Phone": "(02) 60329612",
    "Postcode": 3685,
    "Suburb": "Rutherglen",
    "Suburb_Cap": "RUTHERGLEN"
  },
  {
    "Address": "2 Jackson Street",
    "Email": "CASTERTON.UNI@police.vic.gov.au",
    "Fax": "(03) 55812101",
    "Latitude": "-37.5853152230979",
    "Longitude": "141.406052333433",
    "Name": "Casterton",
    "Opening_Hours": "Non-24 Hours",
    "Phone": "(03) 55811024",
    "Postcode": 3311,
    "Suburb": "Casterton",
    "Suburb_Cap": "CASTERTON"
  },
  {
    "Address": "400 Broadway",
    "Email": "UNI-WYCHEPROOF@police.vic.gov.au",
    "Fax": "(03) 5493 7386",
    "Latitude": "-36.0744536847642",
    "Longitude": "143.225966369963",
    "Name": "Wycheproof",
    "Opening_Hours": "Non-24 Hours",
    "Phone": "(03) 54937200",
    "Postcode": 3527,
    "Suburb": "Wycheproof",
    "Suburb_Cap": "WYCHEPROOF"
  },
  {
    "Address": "214 Koroit Street",
    "Email": "WARRNAMBOOL.UNI@police.vic.gov.au",
    "Fax": "(03) 55601111",
    "Latitude": "-38.3809246736332",
    "Longitude": "142.478221021395",
    "Name": "Warrnambool",
    "Opening_Hours": "24 hours.",
    "Phone": "(03) 55601333",
    "Postcode": 3280,
    "Suburb": "Warrnambool",
    "Suburb_Cap": "WARRNAMBOOL"
  },
  {
    "Address": "68 King Street",
    "Email": "yarraglen@police.vic.gov.au",
    "Fax": "(03) 97301048",
    "Latitude": "-37.6602240239637",
    "Longitude": "145.373270632004",
    "Name": "Yarra Glen",
    "Opening_Hours": "Non-24 Hours",
    "Phone": "(03) 97301296",
    "Postcode": 3775,
    "Suburb": "Yarra Glen",
    "Suburb_Cap": "YARRA GLEN"
  },
  {
    "Address": "88 High Street",
    "Email": "AXEDALE.UNI@police.vic.gov.au",
    "Fax": "(03) 9244 2106",
    "Latitude": "-36.7871057134982",
    "Longitude": "144.50165408339",
    "Name": "Axedale",
    "Opening_Hours": "Non-24 Hours",
    "Phone": "(03) 5439 7202",
    "Postcode": 3551,
    "Suburb": "Axedale",
    "Suburb_Cap": "AXEDALE"
  },
  {
    "Address": "37 Glendenning Street",
    "Email": "BALMORAL.UNI@police.vic.gov.au",
    "Fax": "(03) 9244 2107",
    "Latitude": "-37.2490343847146",
    "Longitude": "141.843173773192",
    "Name": "Balmoral",
    "Opening_Hours": "Non-24 Hours",
    "Phone": "(03) 5570 1209",
    "Postcode": 3407,
    "Suburb": "Balmoral",
    "Suburb_Cap": "BALMORAL"
  },
  {
    "Address": "11 Livingstone Street",
    "Email": "BEAUFORT.UNI@police.vic.gov.au",
    "Fax": "(03) 5349 2270",
    "Latitude": "-37.4312776938033",
    "Longitude": "143.381092602206",
    "Name": "Beaufort",
    "Opening_Hours": "Non-24 Hours",
    "Phone": "(03) 5349 2101",
    "Postcode": 3373,
    "Suburb": "Beaufort",
    "Suburb_Cap": "BEAUFORT"
  },
  {
    "Address": "67-69 The Parade",
    "Email": "UNI-BELLARINE@police.vic.gov.au",
    "Fax": "(03) 5255 4667",
    "Latitude": "-38.2667970076748",
    "Longitude": "144.521828201953",
    "Name": "Bellarine",
    "Opening_Hours": "Non-24 Hours",
    "Phone": "(03) 5256 2698",
    "Postcode": 3226,
    "Suburb": "Bellarine",
    "Suburb_Cap": "BELLARINE"
  },
  {
    "Address": "3 Higginbotham Street",
    "Email": "BEULAH.UNI@police.vic.gov.au",
    "Fax": "(03) 5390 2212",
    "Latitude": "-35.9432073751794",
    "Longitude": "142.419462118258",
    "Name": "Beulah",
    "Opening_Hours": "Non-24 Hours",
    "Phone": "(03) 5390 2212",
    "Postcode": 3395,
    "Suburb": "Beulah",
    "Suburb_Cap": "BEULAH"
  },
  {
    "Address": "89 Main Street",
    "Email": "BIRREGURRA.UNI@police.vic.gov.au",
    "Fax": "(03) 5236 2082",
    "Latitude": "-38.3363271658423",
    "Longitude": "143.782610544699",
    "Name": "Birregurra",
    "Opening_Hours": "Non-24 Hours",
    "Phone": "(03) 5236 2034",
    "Postcode": 3242,
    "Suburb": "Birregurra",
    "Suburb_Cap": "BIRREGURRA"
  },
  {
    "Address": "27 Scott Street",
    "Email": "CAVENDISH.UNI@police.vic.gov.au",
    "Fax": "(03) 5574 2344",
    "Latitude": "-37.5272025507814",
    "Longitude": "142.040420373914",
    "Name": "Cavendish",
    "Opening_Hours": "Non-24 Hours",
    "Phone": "(03) 5574 2206",
    "Postcode": 3314,
    "Suburb": "Cavendish",
    "Suburb_Cap": "CAVENDISH"
  },
  {
    "Address": "52 Curdie Street",
    "Email": "COBDEN.UNI@police.vic.gov.au",
    "Fax": "(03) 5595 1750",
    "Latitude": "-38.3281270349998",
    "Longitude": "143.075585415369",
    "Name": "Cobden",
    "Opening_Hours": "Non-24 Hours",
    "Phone": "(03) 5595 1550",
    "Postcode": 3266,
    "Suburb": "Cobden",
    "Suburb_Cap": "COBDEN"
  },
  {
    "Address": "42 Queen Street",
    "Email": "COLAC.UNI@police.vic.gov.au",
    "Fax": "(03) 5230 0008",
    "Latitude": "-38.3381041307185",
    "Longitude": "143.592597388167",
    "Name": "Colac",
    "Opening_Hours": "24 hours.",
    "Phone": "(03) 5232 8200",
    "Postcode": 3250,
    "Suburb": "Colac",
    "Suburb_Cap": "COLAC"
  },
  {
    "Address": "137 Napier Street",
    "Email": "CRESWICK.UNI@police.vic.gov.au",
    "Fax": "(03) 5345 8063",
    "Latitude": "-37.4298913775448",
    "Longitude": "143.892350859504",
    "Name": "Creswick",
    "Opening_Hours": "Non-24 Hours",
    "Phone": "(03) 5345 2220",
    "Postcode": 3363,
    "Suburb": "Creswick",
    "Suburb_Cap": "CRESWICK"
  },
  {
    "Address": "21 Wapling Avenue",
    "Email": "DARTMOOR.UNI@police.vic.gov.au",
    "Fax": "(03) 5528 1433",
    "Latitude": "-37.9217749625367",
    "Longitude": "141.281501410181",
    "Name": "Dartmoor",
    "Opening_Hours": "Non-24 Hours",
    "Phone": "(03) 5528 1222",
    "Postcode": 3304,
    "Suburb": "Dartmoor",
    "Suburb_Cap": "DARTMOOR"
  },
  {
    "Address": "143-145 Anstruther Street",
    "Email": "ECHUCA.UNI@police.vic.gov.a",
    "Fax": "(03) 5483 1598",
    "Latitude": "-36.125889340527",
    "Longitude": "144.754271280784",
    "Name": "Echuca",
    "Opening_Hours": "24 hours.",
    "Phone": "(03) 5483 1500",
    "Postcode": 3625,
    "Suburb": "Echuca",
    "Suburb_Cap": "ECHUCA"
  },
  {
    "Address": "47 Station Street",
    "Email": "FORREST.UNI@police.vic.gov.au",
    "Fax": "(03) 5236 6273",
    "Latitude": "-38.5210219146182",
    "Longitude": "143.716625573745",
    "Name": "Forrest",
    "Opening_Hours": "Non-24 Hours",
    "Phone": "(03) 5236 6372",
    "Postcode": 3236,
    "Suburb": "Forrest",
    "Suburb_Cap": "FORREST"
  },
  {
    "Address": "20 Roberts Ave",
    "Email": "HORSHAM-UNI-OIC@police.vic.gov.au",
    "Fax": "(03) 5382 9210",
    "Latitude": "-36.7140611802398",
    "Longitude": "142.201221029193",
    "Name": "Horsham",
    "Opening_Hours": "24 hours.",
    "Phone": "(03) 5382 9200",
    "Postcode": 3400,
    "Suburb": "Horsham",
    "Suburb_Cap": "HORSHAM"
  },
  {
    "Address": "64 Great Ocean Road",
    "Email": "LAVERSHILL-UNI-OIC@police.vic.gov.au",
    "Fax": "(03) 5237 3122",
    "Latitude": "-38.6823516058165",
    "Longitude": "143.385940432408",
    "Name": "Lavers Hill",
    "Opening_Hours": "Non-24 Hours",
    "Phone": "(03) 5237 3200",
    "Postcode": 3238,
    "Suburb": "Lavers Hill",
    "Suburb_Cap": "LAVERS HILL"
  },
  {
    "Address": "351 High Street",
    "Email": "NA",
    "Fax": "(03) 5343 2477",
    "Latitude": "-37.4222900030321",
    "Longitude": "143.715356804249",
    "Name": "Learmonth",
    "Opening_Hours": "Non-24 Hours",
    "Phone": "(03) 5343 2288",
    "Postcode": 3352,
    "Suburb": "Learmonth",
    "Suburb_Cap": "LEARMONTH"
  },
  {
    "Address": "59 Victoria Street",
    "Email": "MACEDON.UNI@police.vic.gov.au",
    "Fax": "(03) 5426 4147",
    "Latitude": "-37.4229178174578",
    "Longitude": "144.567768184506",
    "Name": "Macedon",
    "Opening_Hours": "Non-24 Hours",
    "Phone": "(03) 5426 1228",
    "Postcode": 3440,
    "Suburb": "Macedon",
    "Suburb_Cap": "MACEDON"
  },
  {
    "Address": "55-61 Clarendon Street",
    "Email": "MARYBOROUGH.UNI@police.vic.gov.au",
    "Fax": "(03) 5460 3304",
    "Latitude": "-37.0472302600994",
    "Longitude": "143.735370543608",
    "Name": "Maryborough",
    "Opening_Hours": "24 hours.",
    "Phone": "(03) 5460 3300",
    "Postcode": 3465,
    "Suburb": "Maryborough",
    "Suburb_Cap": "MARYBOROUGH"
  },
  {
    "Address": "106 Main Street",
    "Email": "MINYIP.UNI@police.vic.gov.au",
    "Fax": "(03) 5385 7620",
    "Latitude": "-36.4579313027923",
    "Longitude": "142.589114165054",
    "Name": "Minyip",
    "Opening_Hours": "Non-24 Hours",
    "Phone": "(03) 5385 7310",
    "Postcode": 3392,
    "Suburb": "Minyip",
    "Suburb_Cap": "MINYIP"
  },
  {
    "Address": "31 Bartley Street",
    "Email": "MOYHU.UNI@police.vic.gov.au",
    "Fax": "(03) 5727 9506",
    "Latitude": "-36.5781930720211",
    "Longitude": "146.37508530654",
    "Name": "Moyhu",
    "Opening_Hours": "Non-24 Hours",
    "Phone": "(03) 5727 9206",
    "Postcode": 3732,
    "Suburb": "Moyhu",
    "Suburb_Cap": "MOYHU"
  },
  {
    "Address": "3 Queen Street",
    "Email": "MYRTLEFORD.UNI@police.vic.gov.au",
    "Fax": "(03) 5752 2841",
    "Latitude": "-36.5605894005721",
    "Longitude": "146.726733639159",
    "Name": "Myrtleford",
    "Opening_Hours": "Non-24 Hours",
    "Phone": "(03) 5752 1003",
    "Postcode": 3737,
    "Suburb": "Myrtleford",
    "Suburb_Cap": "MYRTLEFORD"
  },
  {
    "Address": "2 Hayes Hill Road",
    "Email": "UNI-NYAHWEST@police.vic.gov.au",
    "Fax": "(03) 5030 2550",
    "Latitude": "-35.171674386327",
    "Longitude": "143.378110872862",
    "Name": "Nyah",
    "Opening_Hours": "Non-24 Hours",
    "Phone": "(03) 5030 2435",
    "Postcode": 3594,
    "Suburb": "Nyah",
    "Suburb_Cap": "NYAH"
  },
  {
    "Address": "549A Mt Dandenong-Tourist Road",
    "Email": "olinda.uni@police.vic.gov.au",
    "Fax": "(03) 9751 1424",
    "Latitude": "-37.8560952216281",
    "Longitude": "145.364952477355",
    "Name": "Olinda",
    "Opening_Hours": "Non-24 Hours",
    "Phone": "(03) 9751 1241",
    "Postcode": 3788,
    "Suburb": "Olinda",
    "Suburb_Cap": "OLINDA"
  },
  {
    "Address": "10 Campbell Street",
    "Email": "UNI-PORTFAIRY@police.vic.gov.au",
    "Fax": "(03) 5568 1938",
    "Latitude": "-38.3876560004726",
    "Longitude": "142.239349068356",
    "Name": "Port Fairy",
    "Opening_Hours": "Non-24 Hours",
    "Phone": "(03) 5568 1007",
    "Postcode": 3284,
    "Suburb": "Port Fairy",
    "Suburb_Cap": "PORT FAIRY"
  },
  {
    "Address": "119 Newcombe Street",
    "Email": "PORTARLINGTON-UNI-OIC@police.vic.gov.au",
    "Fax": "(03) 5259 2161",
    "Latitude": "-38.1153499975976",
    "Longitude": "144.657888522846",
    "Name": "Portarlington",
    "Opening_Hours": "Non-24 Hours",
    "Phone": "(03) 5259 2606",
    "Postcode": 3223,
    "Suburb": "Portarlington",
    "Suburb_Cap": "PORTARLINGTON"
  },
  {
    "Address": "5-7 Guthrie Street",
    "Email": "uni.quambatook@police.vic.gov.au",
    "Fax": "(03) 5457 1408",
    "Latitude": "-35.8522624003164",
    "Longitude": "143.521402148212",
    "Name": "Quambatook",
    "Opening_Hours": "Non-24 Hours",
    "Phone": "(03) 5457 1200",
    "Postcode": 3540,
    "Suburb": "Quambatook",
    "Suburb_Cap": "QUAMBATOOK"
  },
  {
    "Address": "56 Gellibrand Street",
    "Email": "QUEENSCLIFF-MERC@police.vic.gov.au",
    "Fax": "(03) 5258 3752",
    "Latitude": "-38.2700884736642",
    "Longitude": "144.660997698743",
    "Name": "Queenscliff",
    "Opening_Hours": "Non-24 Hours",
    "Phone": "(03) 5258 4285",
    "Postcode": 3225,
    "Suburb": "Queenscliff",
    "Suburb_Cap": "QUEENSCLIFF"
  },
  {
    "Address": "29A Sandhurst Street",
    "Email": "UNI-RAYWOOD@police.vic.gov.au",
    "Fax": "(03) 5436 1544",
    "Latitude": "-36.5387236637283",
    "Longitude": "144.203992768293",
    "Name": "Raywood",
    "Opening_Hours": "Non-24 Hours",
    "Phone": "(03) 5436 1200",
    "Postcode": 3570,
    "Suburb": "Raywood",
    "Suburb_Cap": "RAYWOOD"
  },
  {
    "Address": "95 Bromley Road",
    "Email": "UNI-ROBINVALE@police.vic.gov.au",
    "Fax": "(03) 5026 4298",
    "Latitude": "-34.5855073789794",
    "Longitude": "142.770451772536",
    "Name": "Robinvale",
    "Opening_Hours": "Non-24 Hours",
    "Phone": "(03) 5026 3002",
    "Postcode": 3549,
    "Suburb": "Robinvale",
    "Suburb_Cap": "ROBINVALE"
  },
  {
    "Address": "157 Main Street",
    "Email": "ROMSEY.UNI@police.vic.gov.au",
    "Fax": "(03) 5429 6363",
    "Latitude": "-37.3435792163891",
    "Longitude": "144.741699008365",
    "Name": "Romsey",
    "Opening_Hours": "Non-24 Hours",
    "Phone": "(03) 5429 5461",
    "Postcode": 3434,
    "Suburb": "Romsey",
    "Suburb_Cap": "ROMSEY"
  },
  {
    "Address": "2 Tresise Street",
    "Email": "MITIAMO.UNI@police.vic.gov.au",
    "Fax": "(03) 5437 8331",
    "Latitude": "-36.4060092052213",
    "Longitude": "143.974106140111",
    "Name": "Serpentine",
    "Opening_Hours": "Non-24 Hours",
    "Phone": "(03) 5437 8318",
    "Postcode": 3517,
    "Suburb": "Serpentine",
    "Suburb_Cap": "SERPENTINE"
  },
  {
    "Address": "58 Tallarook Street corner High Street",
    "Email": "Seymour.uni@police.vic.gov.au",
    "Fax": "(03) 5735 0267",
    "Latitude": "-37.0199668223839",
    "Longitude": "145.130130119018",
    "Name": "Seymour",
    "Opening_Hours": "24 hours.",
    "Phone": "(03) 5735 0200",
    "Postcode": 3660,
    "Suburb": "Seymour",
    "Suburb_Cap": "SEYMOUR"
  },
  {
    "Address": "14 Towong St",
    "Email": "TALLANGATTA.UNI@police.vic.gov.au",
    "Fax": "(02) 6071 2284",
    "Latitude": "-36.2154611980686",
    "Longitude": "147.180443127179",
    "Name": "Tallangatta",
    "Opening_Hours": "Non-24 Hours",
    "Phone": "(02) 6071 2204",
    "Postcode": 3700,
    "Suburb": "Tallangatta",
    "Suburb_Cap": "TALLANGATTA"
  },
  {
    "Address": "1011-1013 Nepean Highway",
    "Email": "moorabbin-uniform-oic-mgr@police.vic.gov.au",
    "Fax": "(03) 95534297",
    "Latitude": "-37.9368491645383",
    "Longitude": "145.037856791634",
    "Name": "Moorabbin",
    "Opening_Hours": "24 hours.",
    "Phone": "(03) 95566565",
    "Postcode": 3189,
    "Suburb": "Moorabbin",
    "Suburb_Cap": "MOORABBIN"
  },
  {
    "Address": "1224 Nepean Hwy",
    "Email": "cheltenham.uni@police.vic.gov.au",
    "Fax": "(03) 95839225",
    "Latitude": "-37.9647782859501",
    "Longitude": "145.056674381405",
    "Name": "Cheltenham",
    "Opening_Hours": "Telephone only, 24 hours, reception counter closed.",
    "Phone": "(03) 95839767",
    "Postcode": 3192,
    "Suburb": "Cheltenham",
    "Suburb_Cap": "CHELTENHAM"
  },
  {
    "Address": "50 Langhorne Street",
    "Email": "dandenong.uni@police.vic.gov.au",
    "Fax": "(03) 97677419",
    "Latitude": "-37.990377449889",
    "Longitude": "145.217272324094",
    "Name": "Dandenong",
    "Opening_Hours": "24 hours.",
    "Phone": "(03) 97677444",
    "Postcode": 3175,
    "Suburb": "Dandenong",
    "Suburb_Cap": "DANDENONG"
  },
  {
    "Address": "259 Dorset Road",
    "Email": "boronia.uni@police.vic.gov.au",
    "Fax": "(03) 97606646",
    "Latitude": "-37.8599483887",
    "Longitude": "145.285534511444",
    "Name": "Boronia",
    "Opening_Hours": "24 hours.",
    "Phone": "(03) 97606600",
    "Postcode": 3155,
    "Suburb": "Boronia",
    "Suburb_Cap": "BORONIA"
  },
  {
    "Address": "11 Westernport Road",
    "Email": "langlang.uni@police.vic.gov.au",
    "Fax": "(03) 59975585",
    "Latitude": "-38.2652763959206",
    "Longitude": "145.563456984972",
    "Name": "Lang Lang",
    "Opening_Hours": "Telephone only (no-24 hrs), reception counter closed.",
    "Phone": "(03) 59975444",
    "Postcode": 3984,
    "Suburb": "Lang Lang",
    "Suburb_Cap": "LANG LANG"
  },
  {
    "Address": "780 Princes Highway",
    "Email": "pakenham.uni@police.vic.gov.au",
    "Fax": "(03) 59452525",
    "Latitude": "-38.0619548120756",
    "Longitude": "145.452506455004",
    "Name": "Pakenham",
    "Opening_Hours": "24 hours.",
    "Phone": "(03) 59452500",
    "Postcode": 3810,
    "Suburb": "Pakenham",
    "Suburb_Cap": "PAKENHAM"
  },
  {
    "Address": "396 Malvern Road",
    "Email": "PRAHRAN.UNI@police.vic.gov.au",
    "Fax": "(03) 9520 5230",
    "Latitude": "-37.8484171064878",
    "Longitude": "144.999989755817",
    "Name": "Prahran",
    "Opening_Hours": "24 hours.",
    "Phone": "(03) 95205200",
    "Postcode": 3181,
    "Suburb": "Prahran",
    "Suburb_Cap": "PRAHRAN"
  },
  {
    "Address": "151 Centenary Drive",
    "Email": "millpark.uni@police.vic.gov.au",
    "Fax": "(03) 94073303",
    "Latitude": "-37.6574793903926",
    "Longitude": "145.075359630399",
    "Name": "Mill Park",
    "Opening_Hours": "24 hours.",
    "Phone": "(03) 94073333",
    "Postcode": 3082,
    "Suburb": "Mill Park",
    "Suburb_Cap": "MILL PARK"
  },
  {
    "Address": "48 Dennis Street",
    "Email": "northcote.uni@police.vic.gov.au",
    "Fax": "(03) 94030277",
    "Latitude": "-37.7660514789817",
    "Longitude": "145.002147193343",
    "Name": "Northcote",
    "Opening_Hours": "24 hours.",
    "Phone": "(03) 94030200",
    "Postcode": 3070,
    "Suburb": "Northcote",
    "Suburb_Cap": "NORTHCOTE"
  },
  {
    "Address": "51-59 Roseberry Avenue",
    "Email": "preston.uni@police.vic.gov.au",
    "Fax": "(03) 94796169",
    "Latitude": "-37.7392384223117",
    "Longitude": "145.005827439803",
    "Name": "Preston",
    "Opening_Hours": "24 hours.",
    "Phone": "(03) 94796111",
    "Postcode": 3072,
    "Suburb": "Preston",
    "Suburb_Cap": "PRESTON"
  },
  {
    "Address": "67-73 Mahoney Road",
    "Email": "reservoir.uni@police.vic.gov.au",
    "Fax": "(03) 94601324",
    "Latitude": "-37.6939176065377",
    "Longitude": "144.998535181607",
    "Name": "Reservoir",
    "Opening_Hours": "24 hours.",
    "Phone": "(03) 94606744",
    "Postcode": 3073,
    "Suburb": "Reservoir",
    "Suburb_Cap": "RESERVOIR"
  },
  {
    "Address": "21-23 Pryor Street",
    "Email": "eltham.uni@police.vic.gov.au",
    "Fax": "(03) 94304565",
    "Latitude": "-37.7133424748155",
    "Longitude": "145.15080944122",
    "Name": "Eltham",
    "Opening_Hours": "24 hours.",
    "Phone": "(03) 94304500",
    "Postcode": 3095,
    "Suburb": "Eltham",
    "Suburb_Cap": "ELTHAM"
  },
  {
    "Address": "15 Dimboola Road",
    "Email": "broadmeadows.pros@police.vic.gov.au",
    "Fax": "(03) 93028264",
    "Latitude": "-37.6833989739032",
    "Longitude": "144.916536176887",
    "Name": "Broadmeadows Prosecutions",
    "Opening_Hours": "Non-24 Hours",
    "Phone": "(03) 93028263",
    "Postcode": 3047,
    "Suburb": "Broadmeadows",
    "Suburb_Cap": "BROADMEADOWS"
  },
  {
    "Address": "1 Blundy Street corner 12-14 Cahill Street",
    "Email": "briagolong.uni@police.vic.gov.au",
    "Fax": "(03) 51455546",
    "Latitude": "-37.8428014844207",
    "Longitude": "147.069666032745",
    "Name": "Briagolong",
    "Opening_Hours": "Non-24 Hours",
    "Phone": "(03) 51455213",
    "Postcode": 3860,
    "Suburb": "Briagolong",
    "Suburb_Cap": "BRIAGOLONG"
  },
  {
    "Address": "38 Harker Street",
    "Email": "healesville.uni@police.vic.gov.au",
    "Fax": "(03) 59623700",
    "Latitude": "-37.6565731340084",
    "Longitude": "145.51085587854",
    "Name": "Healesville",
    "Opening_Hours": "Non-24 Hours",
    "Phone": "(03) 59624422",
    "Postcode": 3777,
    "Suburb": "Healesville",
    "Suburb_Cap": "HEALESVILLE"
  },
  {
    "Address": "338 Stephensons Road",
    "Email": "MOUNTWAVERLEY.UNI@police.vic.gov.au",
    "Fax": "(03) 98881370",
    "Latitude": "-37.8805390893459",
    "Longitude": "145.128582792811",
    "Name": "Mount Waverley",
    "Opening_Hours": "Non-24 Hours, reception counter temporarily suspended.",
    "Phone": "(03) 98883755",
    "Postcode": 3149,
    "Suburb": "Mount Waverley",
    "Suburb_Cap": "MOUNT WAVERLEY"
  },
  {
    "Address": "8 Watson Street",
    "Email": "murchison.uni@police.vic.gov.au",
    "Fax": "(03) 5826 2252",
    "Latitude": "-36.6179833966515",
    "Longitude": "145.215868462877",
    "Name": "Murchison",
    "Opening_Hours": "Non-24 Hours",
    "Phone": "(03) 58262222",
    "Postcode": 3610,
    "Suburb": "Murchison",
    "Suburb_Cap": "MURCHISON"
  },
  {
    "Address": "76 Main Street",
    "Email": "NEERIMSOUTH-UNI-OIC@police.vic.gov.au",
    "Fax": "(03) 56281681",
    "Latitude": "-38.0183385323837",
    "Longitude": "145.954487574084",
    "Name": "Neerim South",
    "Opening_Hours": "Non-24 Hours",
    "Phone": "(03) 56281303",
    "Postcode": 3831,
    "Suburb": "Neerim South",
    "Suburb_Cap": "NEERIM SOUTH"
  },
  {
    "Address": "401 Whitehorse Road",
    "Email": "GP-R4D2-ADMINDIV2-NUNAWADING-Mgr@police.vic.gov.au",
    "Fax": "(03) 98714194",
    "Latitude": "-37.8172225201319",
    "Longitude": "145.18327229372",
    "Name": "Nunawading",
    "Opening_Hours": "Non-24 Hours",
    "Phone": "(03) 98714111",
    "Postcode": 3131,
    "Suburb": "Nunawading",
    "Suburb_Cap": "NUNAWADING"
  },
  {
    "Address": "19 Tongio Road",
    "Email": "omeo.uni@police.vic.gov.au",
    "Fax": "(03) 51591474",
    "Latitude": "-37.1018678663019",
    "Longitude": "147.592254685959",
    "Name": "Omeo",
    "Opening_Hours": "Non-24 Hours",
    "Phone": "(03) 51591222",
    "Postcode": 3898,
    "Suburb": "Omeo",
    "Suburb_Cap": "OMEO"
  },
  {
    "Address": "155 Welsford Street",
    "Email": "Shepparton.uni@police.vic.gov.au",
    "Fax": "(03) 58205704",
    "Latitude": "-36.3814346208563",
    "Longitude": "145.397936376667",
    "Name": "Shepparton",
    "Opening_Hours": "24 hours.",
    "Phone": "(03) 58205777",
    "Postcode": 3630,
    "Suburb": "Shepparton",
    "Suburb_Cap": "SHEPPARTON"
  },
  {
    "Address": "5 - 7 Foster Road",
    "Email": "toora.uni@police.vic.gov.au",
    "Fax": "(03) 56862292",
    "Latitude": "-38.661575734195",
    "Longitude": "146.324628874238",
    "Name": "Toora",
    "Opening_Hours": "Non-24 Hours",
    "Phone": "(03) 56862485",
    "Postcode": 3962,
    "Suburb": "Toora",
    "Suburb_Cap": "TOORA"
  },
  {
    "Address": "35 Palmerston Street",
    "Email": "WARRAGUL.UNI@police.vic.gov.au",
    "Fax": "(03) 56227199",
    "Latitude": "-38.1618378674711",
    "Longitude": "145.933231627679",
    "Name": "Warragul",
    "Opening_Hours": "24 hours.",
    "Phone": "(03) 56227111",
    "Postcode": 3820,
    "Suburb": "Warragul",
    "Suburb_Cap": "WARRAGUL"
  },
  {
    "Address": "75-77 Watt Street",
    "Email": "wonthaggi.uni@police.vic.gov.au",
    "Fax": "(03) 5672 3490",
    "Latitude": "-38.6078885949885",
    "Longitude": "145.58982122751",
    "Name": "Wonthaggi",
    "Opening_Hours": "24 hours.",
    "Phone": "(03) 5671 4100",
    "Postcode": 3995,
    "Suburb": "Wonthaggi",
    "Suburb_Cap": "WONTHAGGI"
  },
  {
    "Address": "13 Murchison Street",
    "Email": "MARYSVILLE-UNI-OIC@police.vic.gov.au",
    "Fax": "(03) 59633533",
    "Latitude": "-37.5105592732184",
    "Longitude": "145.74763149039",
    "Name": "Marysville",
    "Opening_Hours": "Non-24 Hours",
    "Phone": "(03) 59633222",
    "Postcode": 3779,
    "Suburb": "Marysville",
    "Suburb_Cap": "MARYSVILLE"
  },
  {
    "Address": "156 High Street",
    "Email": "broadford.uni@police.vic.gov.au",
    "Fax": "(03) 57842073",
    "Latitude": "-37.2034578281941",
    "Longitude": "145.055211936207",
    "Name": "Broadford",
    "Opening_Hours": "Non-24 Hours, reception counter temporarily suspended.",
    "Phone": "(03) 57841404",
    "Postcode": 3658,
    "Suburb": "Broadford",
    "Suburb_Cap": "BROADFORD"
  },
  {
    "Address": "24-26 Queen Street",
    "Email": "DOOKIE.UNI@police.vic.gov.au",
    "Fax": "(03) 58286506",
    "Latitude": "-36.3304382525874",
    "Longitude": "145.685254840365",
    "Name": "Dookie",
    "Opening_Hours": "Non-24 Hours",
    "Phone": "(03) 58286213",
    "Postcode": 3646,
    "Suburb": "Dookie",
    "Suburb_Cap": "DOOKIE"
  },
  {
    "Address": "643 Ferntree Gully Road",
    "Email": "glenwaverley.uni@police.vic.gov.au",
    "Fax": "(03) 95613039",
    "Latitude": "-37.9035083124689",
    "Longitude": "145.164131423081",
    "Name": "Glen Waverley",
    "Opening_Hours": "24 hours.",
    "Phone": "(03) 95661555",
    "Postcode": 3150,
    "Suburb": "Glen Waverley",
    "Suburb_Cap": "GLEN WAVERLEY"
  }
]